{
"type": "FeatureCollection",
"name": "obszar",
"crs": { "type": "name", "properties": { "name": "urn:ogc:def:crs:OGC:1.3:CRS84" } },
"features": [
{ "type": "Feature", "properties": { "name": "obszar" }, "geometry": { "type": "Polygon", "coordinates": [ [ [ 17.5714595, 51.1176166 ], [ 17.5755201, 51.123643 ], [ 17.5763812, 51.1294217 ], [ 17.5655464, 51.1334821 ], [ 17.5677214, 51.1378424 ], [ 17.5454688, 51.1435741 ], [ 17.544747, 51.1544882 ], [ 17.5586121, 51.1567837 ], [ 17.5663643, 51.1614363 ], [ 17.5679493, 51.165890599999983 ], [ 17.5782436, 51.1622414 ], [ 17.589212, 51.1713252 ], [ 17.5988939, 51.1678253 ], [ 17.5970756, 51.1710899 ], [ 17.6026988, 51.1759111 ], [ 17.5966133, 51.1785355 ], [ 17.606593, 51.189602 ], [ 17.6115019, 51.190519499999986 ], [ 17.6130579, 51.1873208 ], [ 17.6194991, 51.184407 ], [ 17.6206111, 51.1754265 ], [ 17.6403675, 51.1731425 ], [ 17.6394345, 51.1681494 ], [ 17.6559136, 51.1666239 ], [ 17.6588493, 51.1634884 ], [ 17.6692699, 51.1608153 ], [ 17.6741815, 51.1641326 ], [ 17.682802, 51.1656908 ], [ 17.682201, 51.1670592 ], [ 17.7002598, 51.1632713 ], [ 17.6981914, 51.1716649 ], [ 17.7043806, 51.1738962 ], [ 17.7064227, 51.1731603 ], [ 17.7146301, 51.1749543 ], [ 17.7390452, 51.174291 ], [ 17.7502452, 51.179680799999979 ], [ 17.7538181, 51.1867886 ], [ 17.7798295, 51.18324 ], [ 17.782959, 51.1882505 ], [ 17.7891019, 51.187921 ], [ 17.7951427, 51.1897665 ], [ 17.7966204, 51.1946291 ], [ 17.7983025, 51.19231629999998 ], [ 17.8108464, 51.190057 ], [ 17.8119079, 51.1867527 ], [ 17.82584, 51.19456850000001 ], [ 17.8364757, 51.1916712 ], [ 17.8425473, 51.189010899999985 ], [ 17.8479614, 51.1837891 ], [ 17.8513287, 51.1720368 ], [ 17.832816, 51.143055 ], [ 17.8313351, 51.137469099999976 ], [ 17.8247631, 51.1399318 ], [ 17.8194184, 51.1398268 ], [ 17.8131221, 51.1379615 ], [ 17.8121984, 51.1324307 ], [ 17.816925, 51.1323439 ], [ 17.8192032, 51.1223164 ], [ 17.8234739, 51.117913299999984 ], [ 17.828304, 51.1198846 ], [ 17.8391493, 51.1164282 ], [ 17.8474918, 51.1171252 ], [ 17.8520276, 51.1119866 ], [ 17.8553377, 51.1142259 ], [ 17.8635958, 51.1145932 ], [ 17.8674611, 51.1109226 ], [ 17.8757394, 51.111781 ], [ 17.880279, 51.105302099999982 ], [ 17.8852901, 51.1037896 ], [ 17.9224394, 51.1139855 ], [ 17.925482, 51.1110226 ], [ 17.9315666, 51.1133985 ], [ 17.9393744, 51.108906700000013 ], [ 17.9955366, 51.1216331 ], [ 18.0036911, 51.1218536 ], [ 18.0151975, 51.1271338 ], [ 18.0393515, 51.1310329 ], [ 18.0503136, 51.1350603 ], [ 18.0595856, 51.1416352 ], [ 18.0732615, 51.1448312 ], [ 18.0754779, 51.146949 ], [ 18.0678864, 51.149508399999988 ], [ 18.0734041, 51.1511681 ], [ 18.072854, 51.1527055 ], [ 18.0796949, 51.152879 ], [ 18.0817827, 51.154543 ], [ 18.0772353, 51.1570051 ], [ 18.0735036, 51.1545667 ], [ 18.0699704, 51.156413 ], [ 18.07049, 51.1593084 ], [ 18.0727878, 51.1587859 ], [ 18.0746851, 51.1636084 ], [ 18.0781671, 51.166173 ], [ 18.0817377, 51.1661184 ], [ 18.0937736, 51.1566195 ], [ 18.1020629, 51.1587456 ], [ 18.1044924, 51.1533995 ], [ 18.1242972, 51.16852489999998 ], [ 18.137203, 51.172015 ], [ 18.1514219, 51.1712751 ], [ 18.1534276, 51.1731236 ], [ 18.1610946, 51.174684199999987 ], [ 18.1643961, 51.1716784 ], [ 18.1626648, 51.1700607 ], [ 18.1635637, 51.16761 ], [ 18.1661825, 51.167089099999984 ], [ 18.1657721, 51.165012 ], [ 18.1744881, 51.1612435 ], [ 18.1839078, 51.1600301 ], [ 18.187362, 51.1572233 ], [ 18.1962246, 51.158161 ], [ 18.2069957, 51.1556057 ], [ 18.2190181, 51.1558571 ], [ 18.2215746, 51.154557 ], [ 18.223758, 51.1571095 ], [ 18.229783, 51.155514699999983 ], [ 18.2377703, 51.1588298 ], [ 18.2435296, 51.1561365 ], [ 18.2463455, 51.1575958 ], [ 18.2515008, 51.155823 ], [ 18.2595626, 51.1577054 ], [ 18.2648663, 51.1560135 ], [ 18.2707747, 51.150414499999982 ], [ 18.2777006, 51.1477301 ], [ 18.2891049, 51.1465284 ], [ 18.2999486, 51.139632 ], [ 18.3030747, 51.1402188 ], [ 18.3051311, 51.1352995 ], [ 18.3149308, 51.1339688 ], [ 18.3166934, 51.1360913 ], [ 18.3229675, 51.1381747 ], [ 18.3329421, 51.139089 ], [ 18.3445372, 51.1370554 ], [ 18.3475647, 51.1380644 ], [ 18.3529981, 51.1361569 ], [ 18.3606384, 51.1374938 ], [ 18.3630523, 51.1362627 ], [ 18.3670243, 51.1388062 ], [ 18.370325, 51.13518 ], [ 18.3751005, 51.1342909 ], [ 18.3755591, 51.1311131 ], [ 18.3816858, 51.128202 ], [ 18.3877362, 51.1299831 ], [ 18.3927061, 51.126419499999983 ], [ 18.4063211, 51.1241338 ], [ 18.4187827, 51.1258622 ], [ 18.4218444, 51.1170444 ], [ 18.4289715, 51.1175678 ], [ 18.4297419, 51.11575340000001 ], [ 18.4369353, 51.114104 ], [ 18.4536978, 51.1149816 ], [ 18.4645144, 51.1202061 ], [ 18.4697537, 51.1043709 ], [ 18.4813994, 51.0997116 ], [ 18.4783198, 51.0923171 ], [ 18.4894042, 51.0907002 ], [ 18.4964894, 51.0951652 ], [ 18.4987372, 51.0995787 ], [ 18.5129715, 51.1031821 ], [ 18.5197902, 51.1082063 ], [ 18.5166307, 51.1112626 ], [ 18.5201684, 51.1162304 ], [ 18.516495, 51.1207883 ], [ 18.5154778, 51.1327206 ], [ 18.5208251, 51.1402598 ], [ 18.5367027, 51.1378402 ], [ 18.5430165, 51.1410933 ], [ 18.5478156, 51.1411088 ], [ 18.5537189, 51.1387838 ], [ 18.5676523, 51.119049499999988 ], [ 18.564103, 51.1122392 ], [ 18.5613448, 51.111149399999981 ], [ 18.5622686, 51.1066463 ], [ 18.5788381, 51.0935007 ], [ 18.5807533, 51.089835 ], [ 18.5776048, 51.0819215 ], [ 18.5923624, 51.0809164 ], [ 18.5997758, 51.0822699 ], [ 18.6082784, 51.0817053 ], [ 18.6235941, 51.0771912 ], [ 18.6250185, 51.071744899999977 ], [ 18.6374567, 51.0633884 ], [ 18.6483563, 51.0610709 ], [ 18.6606835, 51.0546466 ], [ 18.6729514, 51.0569019 ], [ 18.6754172, 51.0533445 ], [ 18.6719615, 51.0490599 ], [ 18.6954867, 51.0157757 ], [ 18.6797845, 51.0082902 ], [ 18.6670256, 51.0077714 ], [ 18.6561789, 51.0050126 ], [ 18.6681899, 50.9889944 ], [ 18.6635745, 50.982068 ], [ 18.6635719, 50.970471 ], [ 18.6445638, 50.969047899999985 ], [ 18.6428605, 50.9654905 ], [ 18.6381999, 50.964485799999977 ], [ 18.6301475, 50.9637829 ], [ 18.6222213, 50.9656491 ], [ 18.6123848, 50.955138 ], [ 18.6303131, 50.9311747 ], [ 18.6492627, 50.931157899999988 ], [ 18.6491246, 50.9268476 ], [ 18.6541686, 50.9206409 ], [ 18.6549504, 50.9165789 ], [ 18.6503674, 50.9060154 ], [ 18.6465735, 50.9041893 ], [ 18.6423276, 50.8995109 ], [ 18.6423185, 50.895658599999962 ], [ 18.6370614, 50.8928232 ], [ 18.6339022, 50.8878912 ], [ 18.6339752, 50.8834179 ], [ 18.629362, 50.8793075 ], [ 18.6285466, 50.8724406 ], [ 18.6234918, 50.8701838 ], [ 18.6230048, 50.865304299999977 ], [ 18.617529, 50.8593597 ], [ 18.6179564, 50.8548692 ], [ 18.6162619, 50.8535233 ], [ 18.6029662, 50.8540491 ], [ 18.5881916, 50.851634 ], [ 18.578546, 50.844337 ], [ 18.5579719, 50.834084 ], [ 18.5574734, 50.830188 ], [ 18.5629023, 50.8197425 ], [ 18.561098, 50.8155703 ], [ 18.5624354, 50.8090875 ], [ 18.5605953, 50.8080736 ], [ 18.5218874, 50.80236 ], [ 18.5130326, 50.8034372 ], [ 18.5043979, 50.8004633 ], [ 18.5036385, 50.796929899999974 ], [ 18.5124112, 50.7980399 ], [ 18.516027, 50.797409 ], [ 18.5158682, 50.79597 ], [ 18.5210418, 50.7969023 ], [ 18.5221807, 50.7916514 ], [ 18.5167881, 50.7919704 ], [ 18.5160918, 50.7888591 ], [ 18.5251538, 50.7862216 ], [ 18.5271989, 50.7801066 ], [ 18.5250664, 50.7763858 ], [ 18.5343301, 50.7787856 ], [ 18.5380503, 50.7742155 ], [ 18.5348857, 50.771424699999976 ], [ 18.5500283, 50.7595758 ], [ 18.5571071, 50.7568487 ], [ 18.5716898, 50.7564156 ], [ 18.5817186, 50.7524524 ], [ 18.5773728, 50.7480577 ], [ 18.5721596, 50.7489628 ], [ 18.5704945, 50.7447085 ], [ 18.5548825, 50.7490185 ], [ 18.5554755, 50.751088099999976 ], [ 18.5517381, 50.752303 ], [ 18.551975, 50.749574299999978 ], [ 18.5491676, 50.7490343 ], [ 18.5470504, 50.742420299999985 ], [ 18.5483026, 50.7320238 ], [ 18.5233352, 50.7266809 ], [ 18.5089518, 50.7260606 ], [ 18.5068936, 50.7131887 ], [ 18.5004727, 50.7097771 ], [ 18.4956653, 50.7105465 ], [ 18.483883, 50.7082627 ], [ 18.484114, 50.7030304 ], [ 18.4806105, 50.7041602 ], [ 18.4782635, 50.7030993 ], [ 18.4936793, 50.7004618 ], [ 18.4925363, 50.6967202 ], [ 18.5009109, 50.6938092 ], [ 18.4993045, 50.6894587 ], [ 18.4947791, 50.6906264 ], [ 18.4933817, 50.6869923 ], [ 18.4840528, 50.6856597 ], [ 18.4876539, 50.6815354 ], [ 18.4855264, 50.6804674 ], [ 18.4870257, 50.678643 ], [ 18.4893725, 50.6775892 ], [ 18.4975157, 50.6790162 ], [ 18.4995523, 50.675942 ], [ 18.5024939, 50.6763402 ], [ 18.503918, 50.6736552 ], [ 18.508878, 50.6737025 ], [ 18.4967618, 50.6706508 ], [ 18.4940853, 50.6642885 ], [ 18.522834, 50.6594085 ], [ 18.5225187, 50.6584389 ], [ 18.5132674, 50.6580867 ], [ 18.5063537, 50.6413259 ], [ 18.5168622, 50.6396293 ], [ 18.5131908, 50.630687 ], [ 18.5175042, 50.6254992 ], [ 18.5872507, 50.6138227 ], [ 18.5901322, 50.606387699999971 ], [ 18.6017269, 50.6044531 ], [ 18.5908003, 50.5777914 ], [ 18.5954597, 50.5775953 ], [ 18.5908423, 50.57581 ], [ 18.5953858, 50.5727009 ], [ 18.6004474, 50.574422 ], [ 18.5980289, 50.5686187 ], [ 18.6034353, 50.5676287 ], [ 18.6162587, 50.5692661 ], [ 18.6053773, 50.552739 ], [ 18.6074733, 50.5500111 ], [ 18.6041245, 50.549038799999984 ], [ 18.5978177, 50.5506232 ], [ 18.5882603, 50.5471634 ], [ 18.5814402, 50.5484312 ], [ 18.5798588, 50.5456048 ], [ 18.5727307, 50.548117 ], [ 18.5568761, 50.5397574 ], [ 18.5340621, 50.5424303 ], [ 18.5059932, 50.5491931 ], [ 18.4778553, 50.552713499999989 ], [ 18.4593953, 50.5485031 ], [ 18.4438695, 50.5478637 ], [ 18.4360129, 50.5450741 ], [ 18.4298677, 50.5316219 ], [ 18.4381302, 50.5273735 ], [ 18.4397115, 50.5193992 ], [ 18.4466766, 50.508812099999986 ], [ 18.4474883, 50.498897699999986 ], [ 18.466544, 50.4995009 ], [ 18.4703638, 50.4796016 ], [ 18.4743684, 50.4792826 ], [ 18.4749278, 50.473032 ], [ 18.4794571, 50.4734971 ], [ 18.4793255, 50.471531 ], [ 18.4859927, 50.4698656 ], [ 18.4832163, 50.466616 ], [ 18.4812912, 50.4582755 ], [ 18.4687961, 50.461608499999976 ], [ 18.4519653, 50.4626276 ], [ 18.453278, 50.471015099999988 ], [ 18.4504469, 50.47396 ], [ 18.452705, 50.4769294 ], [ 18.4400429, 50.480727 ], [ 18.4347723, 50.4784208 ], [ 18.4099484, 50.4746146 ], [ 18.3837508, 50.4835642 ], [ 18.3818069, 50.4812999 ], [ 18.3796091, 50.481742599999961 ], [ 18.3838095, 50.4611716 ], [ 18.386888, 50.4587627 ], [ 18.3829701, 50.4572327 ], [ 18.3861536, 50.4516894 ], [ 18.3824814, 50.4524264 ], [ 18.3816494, 50.449144 ], [ 18.3875008, 50.4451889 ], [ 18.3891159, 50.4395886 ], [ 18.3856259, 50.431304 ], [ 18.3759568, 50.4264711 ], [ 18.3669289, 50.4268828 ], [ 18.3655581, 50.424344699999985 ], [ 18.3671474, 50.4202613 ], [ 18.3648765, 50.419121399999987 ], [ 18.3705449, 50.4154158 ], [ 18.3780671, 50.4135485 ], [ 18.3855518, 50.4042488 ], [ 18.3847094, 50.4001651 ], [ 18.3936596, 50.391446 ], [ 18.3935792, 50.389567599999985 ], [ 18.3963101, 50.3889604 ], [ 18.3911544, 50.3854417 ], [ 18.3849251, 50.3846473 ], [ 18.3850122, 50.3800847 ], [ 18.3822359, 50.3816172 ], [ 18.3770163, 50.3810504 ], [ 18.3768464, 50.3790576 ], [ 18.3738435, 50.3798922 ], [ 18.3765133, 50.3761043 ], [ 18.3882187, 50.3745068 ], [ 18.3885626, 50.3703627 ], [ 18.372468, 50.3715826 ], [ 18.3727613, 50.3610964 ], [ 18.3631383, 50.3571449 ], [ 18.3577446, 50.3565689 ], [ 18.3716046, 50.347035 ], [ 18.3812305, 50.3446262 ], [ 18.393885, 50.3384569 ], [ 18.4001401, 50.3312929 ], [ 18.4010143, 50.327237599999989 ], [ 18.398107, 50.3231873 ], [ 18.4057179, 50.324307 ], [ 18.4067194, 50.3227971 ], [ 18.4090482, 50.3171713 ], [ 18.3919915, 50.3139608 ], [ 18.3932337, 50.3053619 ], [ 18.4042996, 50.2962876 ], [ 18.407642, 50.2899147 ], [ 18.4061325, 50.2865938 ], [ 18.4002103, 50.2841139 ], [ 18.3936904, 50.2759182 ], [ 18.4061096, 50.2770978 ], [ 18.4220857, 50.2728347 ], [ 18.4276464, 50.2673152 ], [ 18.426553, 50.261389 ], [ 18.4202695, 50.2614754 ], [ 18.4258663, 50.2489656 ], [ 18.4208351, 50.2491401 ], [ 18.405858, 50.2547221 ], [ 18.3998497, 50.2537636 ], [ 18.3837452, 50.2555278 ], [ 18.3765993, 50.2539082 ], [ 18.3533246, 50.2582353 ], [ 18.3621075, 50.2472726 ], [ 18.3468515, 50.2472515 ], [ 18.3339275, 50.2452607 ], [ 18.3249348, 50.2408807 ], [ 18.312999, 50.240666 ], [ 18.3132489, 50.2357876 ], [ 18.308436, 50.230761499999979 ], [ 18.3051737, 50.2302224 ], [ 18.3052915, 50.2317918 ], [ 18.2964426, 50.2302574 ], [ 18.2976104, 50.2290125 ], [ 18.2751927, 50.2248717 ], [ 18.2712324, 50.2203588 ], [ 18.2528335, 50.2230548 ], [ 18.2488702, 50.2169091 ], [ 18.2374014, 50.2146684 ], [ 18.2355666, 50.2129378 ], [ 18.2379472, 50.208448 ], [ 18.2354098, 50.2013874 ], [ 18.2413077, 50.1971962 ], [ 18.2494081, 50.1977647 ], [ 18.2506014, 50.194257199999981 ], [ 18.2490326, 50.1925715 ], [ 18.2053062, 50.190318199999979 ], [ 18.1850959, 50.186831 ], [ 18.185994, 50.1809576 ], [ 18.1828362, 50.1809552 ], [ 18.1727471, 50.1865745 ], [ 18.1623579, 50.1891237 ], [ 18.1455785, 50.1794531 ], [ 18.142042, 50.1808578 ], [ 18.1379684, 50.1794564 ], [ 18.1335998, 50.1844187 ], [ 18.120483, 50.1791899 ], [ 18.122865, 50.174791 ], [ 18.1103456, 50.1672107 ], [ 18.1037496, 50.1707944 ], [ 18.1009468, 50.1756391 ], [ 18.1034083, 50.1787488 ], [ 18.1015257, 50.1808751 ], [ 18.1008184, 50.1775988 ], [ 18.0832664, 50.1757124 ], [ 18.083332, 50.174634 ], [ 18.0784734, 50.174327299999973 ], [ 18.0710959, 50.170593 ], [ 18.0670018, 50.172760299999979 ], [ 18.064871, 50.1718419 ], [ 18.0620223, 50.1757021 ], [ 18.0585761, 50.173972 ], [ 18.0629764, 50.1698223 ], [ 18.0614224, 50.168335 ], [ 18.064085, 50.1678154 ], [ 18.0612392, 50.1649743 ], [ 18.0586081, 50.1653496 ], [ 18.0563708, 50.1637948 ], [ 18.0587993, 50.1629871 ], [ 18.0565573, 50.1606512 ], [ 18.0660572, 50.1569909 ], [ 18.0557378, 50.1449386 ], [ 18.0534808, 50.1456995 ], [ 18.0501646, 50.1380885 ], [ 18.0546883, 50.133600499999979 ], [ 18.0680689, 50.1297738 ], [ 18.0671017, 50.1239438 ], [ 18.0607141, 50.1159282 ], [ 18.0726242, 50.1094264 ], [ 18.0663339, 50.1064666 ], [ 18.0592153, 50.096474299999983 ], [ 18.0572236, 50.0871944 ], [ 18.0425282, 50.073945299999984 ], [ 18.0411703, 50.0697097 ], [ 18.0350325, 50.0657662 ], [ 18.0208566, 50.0609207 ], [ 18.0119934, 50.0547212 ], [ 18.0050011, 50.052948 ], [ 18.0066424, 50.0447137 ], [ 18.0040706, 50.038994 ], [ 18.0088212, 50.0312848 ], [ 18.0131017, 50.0302394 ], [ 18.017357, 50.0311748 ], [ 18.0245941, 50.036567599999984 ], [ 18.0247396, 50.03876 ], [ 18.0443784, 50.036607 ], [ 18.0490156, 50.0274277 ], [ 18.0429282, 50.0220401 ], [ 18.0469916, 50.0193833 ], [ 18.0463093, 50.0158863 ], [ 18.042467, 50.01572 ], [ 18.04091, 50.0136044 ], [ 18.0457049, 50.0102909 ], [ 18.0454604, 50.0051267 ], [ 18.0370973, 50.0086034 ], [ 18.0352954, 50.0110082 ], [ 18.0074607, 50.0106989 ], [ 18.0046333, 50.0183607 ], [ 17.9892682, 50.0135356 ], [ 17.983279, 50.0050793 ], [ 17.9698279, 50.008879299999975 ], [ 17.9655087, 50.0082471 ], [ 17.9618519, 50.0049817 ], [ 17.9540415, 50.0050671 ], [ 17.9300674, 49.9866197 ], [ 17.9228469, 49.9787509 ], [ 17.9091562, 49.9765104 ], [ 17.8895053, 49.980085 ], [ 17.8684964, 49.9724893 ], [ 17.8614943, 49.9806484 ], [ 17.8567223, 49.9798628 ], [ 17.8545005, 49.9827691 ], [ 17.8511953, 49.9826684 ], [ 17.8503489, 49.9867871 ], [ 17.8428232, 49.9868058 ], [ 17.8376579, 49.9923535 ], [ 17.8340296, 49.9898097 ], [ 17.8263698, 49.9940079 ], [ 17.8368567, 50.0036091 ], [ 17.8276885, 50.0113046 ], [ 17.7981426, 50.0135014 ], [ 17.7950483, 50.0144584 ], [ 17.7950198, 50.0177057 ], [ 17.7923829, 50.0191273 ], [ 17.7886764, 50.0173263 ], [ 17.7851593, 50.0202105 ], [ 17.7775687, 50.0202023 ], [ 17.7717584, 50.02523249999998 ], [ 17.776526, 50.028379 ], [ 17.7771278, 50.0310817 ], [ 17.7751595, 50.035097 ], [ 17.7697982, 50.0352623 ], [ 17.7692636, 50.0377522 ], [ 17.7732731, 50.0423571 ], [ 17.770597, 50.0438994 ], [ 17.7714221, 50.0486333 ], [ 17.7689276, 50.049113 ], [ 17.7691288, 50.0514912 ], [ 17.7668023, 50.0510036 ], [ 17.7615184, 50.053481 ], [ 17.7620397, 50.0557428 ], [ 17.7641744, 50.0560147 ], [ 17.76134, 50.0569248 ], [ 17.7609625, 50.0588685 ], [ 17.7569147, 50.0583778 ], [ 17.7583674, 50.059765 ], [ 17.7548749, 50.062537299999981 ], [ 17.7595302, 50.0643357 ], [ 17.7563806, 50.065537699999979 ], [ 17.7588948, 50.0677508 ], [ 17.7561908, 50.0671081 ], [ 17.7567544, 50.0685472 ], [ 17.7524384, 50.0696538 ], [ 17.7509411, 50.0732544 ], [ 17.7524441, 50.0742184 ], [ 17.7491792, 50.0760058 ], [ 17.748914, 50.0788322 ], [ 17.7430775, 50.081348 ], [ 17.7403101, 50.0808594 ], [ 17.740058, 50.082751 ], [ 17.7382354, 50.0824117 ], [ 17.7294948, 50.0879358 ], [ 17.7308762, 50.0971615 ], [ 17.7051259, 50.114406099999975 ], [ 17.6968362, 50.1169933 ], [ 17.6832672, 50.1173087 ], [ 17.676657, 50.103024 ], [ 17.6619817, 50.1086869 ], [ 17.6509767, 50.1105703 ], [ 17.6476369, 50.1138837 ], [ 17.6486083, 50.1162267 ], [ 17.6465418, 50.1165773 ], [ 17.6437532, 50.1226992 ], [ 17.644865, 50.1245753 ], [ 17.6402549, 50.1307343 ], [ 17.6173467, 50.1373251 ], [ 17.6170033, 50.1390753 ], [ 17.6112644, 50.1398644 ], [ 17.6058101, 50.148966 ], [ 17.5926847, 50.1599766 ], [ 17.6011524, 50.1696264 ], [ 17.6056036, 50.1711199 ], [ 17.6154603, 50.1713128 ], [ 17.6256963, 50.1691861 ], [ 17.6306705, 50.1734567 ], [ 17.636852, 50.173762299999986 ], [ 17.6433151, 50.1761662 ], [ 17.6657646, 50.1778453 ], [ 17.67944, 50.1829359 ], [ 17.6835901, 50.1816135 ], [ 17.7017846, 50.1841721 ], [ 17.705843, 50.1861072 ], [ 17.7042641, 50.189707799999987 ], [ 17.7106206, 50.1918351 ], [ 17.7099837, 50.19919909999998 ], [ 17.7173288, 50.2024496 ], [ 17.7173623, 50.2056983 ], [ 17.7242144, 50.2065821 ], [ 17.7346104, 50.2024916 ], [ 17.7411325, 50.2020592 ], [ 17.7480498, 50.2052777 ], [ 17.7584506, 50.2065783 ], [ 17.7574864, 50.2105881 ], [ 17.7599901, 50.2165596 ], [ 17.7565501, 50.2214499 ], [ 17.7649704, 50.236391 ], [ 17.7249471, 50.2567502 ], [ 17.7258691, 50.2728181 ], [ 17.7346349, 50.277577799999975 ], [ 17.7429451, 50.2910439 ], [ 17.7478262, 50.293095 ], [ 17.7485037, 50.2966956 ], [ 17.7517113, 50.2974654 ], [ 17.7520456, 50.2995213 ], [ 17.7496432, 50.301164 ], [ 17.7454985, 50.301515 ], [ 17.7449135, 50.300345 ], [ 17.7408417, 50.3019606 ], [ 17.7376644, 50.3012385 ], [ 17.7332869, 50.3035079 ], [ 17.7288165, 50.3032954 ], [ 17.7224815, 50.3176955 ], [ 17.7190165, 50.3202689 ], [ 17.6869201, 50.3279758 ], [ 17.6889948, 50.31559249999998 ], [ 17.6870985, 50.30574690000001 ], [ 17.6891181, 50.30186 ], [ 17.6859947, 50.2990538 ], [ 17.6807968, 50.2969933 ], [ 17.6756442, 50.2921582 ], [ 17.6685938, 50.2911613 ], [ 17.6641178, 50.2870086 ], [ 17.657828, 50.2848891 ], [ 17.6507524, 50.2777643 ], [ 17.6416848, 50.27612160000001 ], [ 17.6384313, 50.2736905 ], [ 17.6120937, 50.2660074 ], [ 17.6054384, 50.2671182 ], [ 17.6026338, 50.2698704 ], [ 17.5980472, 50.270667099999976 ], [ 17.5976306, 50.2748432 ], [ 17.5918814, 50.2789534 ], [ 17.5807262, 50.2779189 ], [ 17.578547, 50.2758485 ], [ 17.5718673, 50.2746644 ], [ 17.5631973, 50.2702938 ], [ 17.5598084, 50.2713631 ], [ 17.5418492, 50.270357 ], [ 17.5257728, 50.2735937 ], [ 17.5244543, 50.2750082 ], [ 17.5184023, 50.2741215 ], [ 17.4955892, 50.2750885 ], [ 17.471821, 50.2691686 ], [ 17.4686899, 50.2695664 ], [ 17.4634687, 50.2670543 ], [ 17.4561861, 50.2696938 ], [ 17.4571483, 50.2603439 ], [ 17.4549119, 50.2568118 ], [ 17.4382317, 50.2516618 ], [ 17.4296899, 50.2541756 ], [ 17.4276817, 50.25864450000001 ], [ 17.4311863, 50.263054 ], [ 17.420671, 50.2774226 ], [ 17.4068702, 50.2739301 ], [ 17.4008289, 50.2795914 ], [ 17.3862027, 50.28287939999997 ], [ 17.3661241, 50.2820573 ], [ 17.3624859, 50.2764 ], [ 17.3625358, 50.264328599999978 ], [ 17.3580362, 50.2652927 ], [ 17.3503003, 50.2638066 ], [ 17.3462665, 50.2675531 ], [ 17.343227, 50.2748063 ], [ 17.3438025, 50.2793673 ], [ 17.3377348, 50.283473 ], [ 17.3481961, 50.2874372 ], [ 17.3447156, 50.2912956 ], [ 17.3459863, 50.2978303 ], [ 17.3536803, 50.3080428 ], [ 17.3486198, 50.3117921 ], [ 17.3375078, 50.3130628 ], [ 17.3404897, 50.3226814 ], [ 17.348227, 50.3227956 ], [ 17.3500291, 50.3253427 ], [ 17.3486618, 50.3283501 ], [ 17.3277934, 50.327099 ], [ 17.3106695, 50.3201631 ], [ 17.3034527, 50.3201387 ], [ 17.2915621, 50.317557899999983 ], [ 17.282052, 50.3190052 ], [ 17.2740156, 50.3218278 ], [ 17.2642972, 50.3280185 ], [ 17.2473241, 50.33207479999998 ], [ 17.2420901, 50.3372768 ], [ 17.2246246, 50.3452138 ], [ 17.2130489, 50.3575444 ], [ 17.2011425, 50.3640162 ], [ 17.1991141, 50.375077599999976 ], [ 17.2029419, 50.3817252 ], [ 17.2031763, 50.3865865 ], [ 17.1840374, 50.3899563 ], [ 17.1794736, 50.3861587 ], [ 17.1625207, 50.3836585 ], [ 17.1572199, 50.380069399999989 ], [ 17.1520977, 50.3815452 ], [ 17.14333, 50.3804206 ], [ 17.1235332, 50.394081 ], [ 17.1111076, 50.3936892 ], [ 17.1107534, 50.4049625 ], [ 17.102, 50.406198 ], [ 17.0851377, 50.4057858 ], [ 17.0823351, 50.4019955 ], [ 17.0683886, 50.4057038 ], [ 17.0525324, 50.4069605 ], [ 17.0379168, 50.4148471 ], [ 17.0297608, 50.415385 ], [ 17.0242706, 50.421474 ], [ 17.0183386, 50.421414 ], [ 17.0135267, 50.4185833 ], [ 17.0061543, 50.42448850000001 ], [ 16.9982906, 50.4277499 ], [ 16.9833757, 50.4200796 ], [ 16.9740102, 50.4177556 ], [ 16.9712333, 50.4213653 ], [ 16.9633748, 50.4260345 ], [ 16.9460668, 50.4339739 ], [ 16.921939, 50.4404964 ], [ 16.9175784, 50.444589299999983 ], [ 16.907898, 50.4494483 ], [ 16.9144425, 50.4497306 ], [ 16.9184465, 50.4528589 ], [ 16.9405618, 50.4612853 ], [ 16.9449851, 50.468036 ], [ 16.94176, 50.4680747 ], [ 16.9467434, 50.4791743 ], [ 16.953933691059582, 50.484316970578561 ], [ 16.947798552783027, 50.480632308662074 ], [ 16.946379730269577, 50.482363688941561 ], [ 16.95003541688564, 50.490071719563502 ], [ 16.943716794801119, 50.493218346431867 ], [ 16.948018376480274, 50.496909757164666 ], [ 16.941310774363913, 50.496715257834246 ], [ 16.933502185703301, 50.501464698384304 ], [ 16.937768873558397, 50.50899581522529 ], [ 16.932576563028128, 50.508704583794383 ], [ 16.925237031576067, 50.512827154780659 ], [ 16.930935154690179, 50.5227179479201 ], [ 16.928849819794021, 50.531123424775593 ], [ 16.917688701072755, 50.538906202730416 ], [ 16.915176308688569, 50.538156850778151 ], [ 16.909248246409785, 50.547833560097978 ], [ 16.89783394113687, 50.543798927578557 ], [ 16.894096465543498, 50.548402198459677 ], [ 16.899845897126127, 50.554955518613099 ], [ 16.882316128063703, 50.560674706417025 ], [ 16.881050127468157, 50.569437476576944 ], [ 16.882990050557023, 50.585112321118167 ], [ 16.878473271058166, 50.586008446862444 ], [ 16.854556666601688, 50.582242017629348 ], [ 16.852873792882811, 50.585886206196029 ], [ 16.847852370716723, 50.588056440954894 ], [ 16.848349809097797, 50.589640930071916 ], [ 16.837783069403663, 50.592144757025373 ], [ 16.834056257649859, 50.597048982762026 ], [ 16.828971093969315, 50.597693301726657 ], [ 16.828991929974801, 50.59947960898365 ], [ 16.824347028003789, 50.60111756466523 ], [ 16.827093279317033, 50.604098468719478 ], [ 16.833364455472207, 50.605807799124925 ], [ 16.825381047038146, 50.609112150134074 ], [ 16.817665513501463, 50.610160555501778 ], [ 16.817310253280453, 50.606652686573405 ], [ 16.81139775959738, 50.606783915368034 ], [ 16.808603736675849, 50.602205114455927 ], [ 16.79641602848891, 50.618868146954526 ], [ 16.804103483546236, 50.633752792908567 ], [ 16.799179055504517, 50.635392228787715 ], [ 16.798244637018012, 50.633464402619424 ], [ 16.795630575437375, 50.634328158838237 ], [ 16.799546736811113, 50.640043995072638 ], [ 16.794229938692109, 50.644826219995252 ], [ 16.795208514091119, 50.650671504178845 ], [ 16.793175971202643, 50.652907827142087 ], [ 16.796487580575988, 50.656744864758387 ], [ 16.794404657851103, 50.654672115178279 ], [ 16.790194803748086, 50.656489714802369 ], [ 16.791374888043794, 50.659660338382004 ], [ 16.805690285112298, 50.660171362020272 ], [ 16.813308565335479, 50.664650181301866 ], [ 16.821629415481816, 50.667225180800742 ], [ 16.823456949417302, 50.670421689030867 ], [ 16.837865223788132, 50.67164167837074 ], [ 16.851115472958679, 50.678823113163197 ], [ 16.850814844558098, 50.681488489032851 ], [ 16.847959184698976, 50.682058186781838 ], [ 16.843404847811822, 50.689618856077878 ], [ 16.838480109983514, 50.687907252960812 ], [ 16.832140634155643, 50.69569365143083 ], [ 16.836090404559616, 50.696539904635159 ], [ 16.84035004390002, 50.701802598408435 ], [ 16.833129206096263, 50.703535411876217 ], [ 16.832593062456468, 50.706411654957186 ], [ 16.837485175998754, 50.715170707019148 ], [ 16.837609521104095, 50.724560920007349 ], [ 16.840715092952223, 50.727323413033538 ], [ 16.836737151473947, 50.731981200652676 ], [ 16.839486164441958, 50.734593062470402 ], [ 16.840720496695887, 50.744548031009245 ], [ 16.838154743113982, 50.749864853670516 ], [ 16.837164191731652, 50.76482578617756 ], [ 16.846358715790448, 50.76337225326786 ], [ 16.849133490071495, 50.764746283336258 ], [ 16.847709291904877, 50.770270860161332 ], [ 16.838270294748096, 50.770708459803103 ], [ 16.839064313707848, 50.773498521533966 ], [ 16.828140177881213, 50.774039752447024 ], [ 16.825945063030478, 50.77910229711491 ], [ 16.817597250944523, 50.777459161279687 ], [ 16.819658080548891, 50.783375444838356 ], [ 16.81730616076765, 50.783401885580084 ], [ 16.817672042446226, 50.785778231581041 ], [ 16.8241806077469, 50.788012593240992 ], [ 16.82110995014548, 50.795187530189608 ], [ 16.799199265894043, 50.790499576214565 ], [ 16.798334554021732, 50.793940112038399 ], [ 16.821789923922747, 50.798349299957842 ], [ 16.821958149241631, 50.795552992811324 ], [ 16.830199777606367, 50.798319585323789 ], [ 16.830429338285182, 50.812022737171716 ], [ 16.84099102926049, 50.812542987437155 ], [ 16.849291057744395, 50.820345392592913 ], [ 16.855541721699922, 50.819786274672055 ], [ 16.858125438244116, 50.823330246123597 ], [ 16.860620203707374, 50.831800751760234 ], [ 16.850659196183443, 50.830423126149043 ], [ 16.849551080551567, 50.833023540625682 ], [ 16.840959622138332, 50.832919706310157 ], [ 16.840274789958173, 50.8339706231043 ], [ 16.842443355231396, 50.839027248219388 ], [ 16.858143073439621, 50.839284197135854 ], [ 16.860888481875136, 50.847856167964963 ], [ 16.851725438434823, 50.848775574159284 ], [ 16.851864453762833, 50.852300795729988 ], [ 16.857447698423989, 50.858346240617465 ], [ 16.853289973978832, 50.860321774318471 ], [ 16.850711558287898, 50.869058400808491 ], [ 16.831210142938946, 50.872434839889252 ], [ 16.841086519274441, 50.880528167562495 ], [ 16.854908647880261, 50.877212138809341 ], [ 16.858035780841778, 50.877453660032444 ], [ 16.860719796899698, 50.882917721157689 ], [ 16.867940402907671, 50.88148275448556 ], [ 16.881048363723146, 50.89068504976985 ], [ 16.881322712448476, 50.893327749971327 ], [ 16.897754796659019, 50.892478675037822 ], [ 16.904543718529933, 50.900603603165237 ], [ 16.916467827638389, 50.906752941790863 ], [ 16.932339553570067, 50.904878114292025 ], [ 16.932556315731539, 50.910858714272408 ], [ 16.935993621896703, 50.912405149518371 ], [ 16.936875797943895, 50.917822709216658 ], [ 16.939993793144172, 50.922520432228794 ], [ 16.942520560176366, 50.922236357118656 ], [ 16.956678652677315, 50.943058297715673 ], [ 16.959815867184144, 50.945779896379101 ], [ 16.965536452172849, 50.945383304406157 ], [ 16.976081311884549, 50.967512013366573 ], [ 16.973514888838501, 50.968207004529638 ], [ 16.975651576437894, 50.968767749134159 ], [ 16.958472108710318, 50.974033107722079 ], [ 16.960161587691104, 50.976921874283953 ], [ 16.965731146997502, 50.974838845831037 ], [ 16.969249985418642, 50.977088111065839 ], [ 16.97597931475627, 50.974524380302093 ], [ 16.978346113064841, 50.978806460464078 ], [ 16.975931528480235, 50.980947606454635 ], [ 16.978458786310213, 50.985817943735583 ], [ 16.983904232631662, 50.985539182445798 ], [ 16.985075197232266, 50.989071575121933 ], [ 16.989558485162952, 50.988375695122151 ], [ 16.990608678509119, 50.993015829162573 ], [ 16.995488170739485, 50.990095890827426 ], [ 16.996107139035953, 50.995273117086569 ], [ 16.9930199159197, 51.004403392052822 ], [ 16.99734090469337, 51.009532959622646 ], [ 16.980053967923531, 51.01155444478281 ], [ 16.980575824516862, 51.017070936811862 ], [ 16.986073012651921, 51.023982630480653 ], [ 16.987612263587106, 51.025146292400322 ], [ 16.997819153025734, 51.022130693773533 ], [ 17.004361302468197, 51.023048713005437 ], [ 17.012225355236822, 51.034821288311342 ], [ 17.024091918231004, 51.034578091725557 ], [ 17.023951351737132, 51.024936753065511 ], [ 17.033532523789663, 51.022687975752923 ], [ 17.034888984275469, 51.024571410091774 ], [ 17.029004544912361, 51.04273584235542 ], [ 17.009892430169486, 51.046520621053993 ], [ 17.011881938134941, 51.054227127267239 ], [ 17.008732308616011, 51.055120887015825 ], [ 17.00525150446877, 51.055686483276119 ], [ 16.99976024149797, 51.049252398646146 ], [ 16.992171201709439, 51.051564895512705 ], [ 16.992875466275503, 51.05574946635523 ], [ 16.986162631373929, 51.065140676143194 ], [ 17.004290156701789, 51.068975604324905 ], [ 17.00690496800874, 51.07343522286746 ], [ 16.999094015076043, 51.081114606846363 ], [ 17.002782255709366, 51.082261742043436 ], [ 17.008988522715004, 51.093501165687741 ], [ 17.014068434801313, 51.097062911073088 ], [ 17.013362928995964, 51.100938892833689 ], [ 17.02160678424627, 51.101489037150436 ], [ 17.038906205871847, 51.099284856548266 ], [ 17.042023242039921, 51.1078183208068 ], [ 17.052601721204894, 51.109503328317025 ], [ 17.056646658330944, 51.106269428539143 ], [ 17.101967411537544, 51.093760458086138 ], [ 17.122120916893195, 51.100330164348819 ], [ 17.127468612136372, 51.100333283076239 ], [ 17.13023445345415, 51.098747204175666 ], [ 17.128367039993154, 51.100577251763745 ], [ 17.133779761501049, 51.104663798338841 ], [ 17.133623521108049, 51.112635212061527 ], [ 17.135771159284914, 51.113344723075059 ], [ 17.156031512225248, 51.107452879024962 ], [ 17.15792160843672, 51.109150360056752 ], [ 17.162967587865097, 51.10759411271831 ], [ 17.16793776381661, 51.111949622279838 ], [ 17.17010627571625, 51.111958578511114 ], [ 17.175684671454157, 51.107378466715026 ], [ 17.180755816868036, 51.106911262308159 ], [ 17.183627777194104, 51.107166699348106 ], [ 17.187496561481083, 51.110755063441133 ], [ 17.195872035578503, 51.109696166118709 ], [ 17.205555144055985, 51.110613821742163 ], [ 17.209632815386296, 51.113533818489138 ], [ 17.216141187426135, 51.111147373524048 ], [ 17.220484631814998, 51.112454292383703 ], [ 17.22554417447105, 51.110464024157103 ], [ 17.233321738129646, 51.11055267564911 ], [ 17.241352515007573, 51.103490157848718 ], [ 17.249608196418606, 51.100011201796498 ], [ 17.263873191410688, 51.101415179654268 ], [ 17.274093418619607, 51.100655150018007 ], [ 17.286305643129651, 51.10466392199438 ], [ 17.291223024695629, 51.104788622039379 ], [ 17.294079796869369, 51.10965591334562 ], [ 17.330223098939815, 51.11764527713116 ], [ 17.349219512943044, 51.111509851051643 ], [ 17.365431807790138, 51.110488315599603 ], [ 17.379418519133932, 51.106704650715322 ], [ 17.394266034982365, 51.108356323068797 ], [ 17.403488579811846, 51.105803153737199 ], [ 17.413689251301349, 51.106936047289032 ], [ 17.419502136196453, 51.105828238920758 ], [ 17.443510959156917, 51.112230846246526 ], [ 17.451625109381546, 51.111949707214706 ], [ 17.467298024859517, 51.11914489878442 ], [ 17.475306341013695, 51.120191365714021 ], [ 17.483261820329577, 51.117947775989037 ], [ 17.486980381364337, 51.120555047114138 ], [ 17.499977065130459, 51.122237469723387 ], [ 17.517340956272623, 51.121312720676926 ], [ 17.516897903269651, 51.11946326319682 ], [ 17.519400357943194, 51.11869427671067 ], [ 17.52432447232891, 51.11996680328236 ], [ 17.531166893440485, 51.118955674358553 ], [ 17.54516105699987, 51.11985631859568 ], [ 17.566508357218652, 51.114799536274873 ], [ 17.5714595, 51.1176166 ] ], [ [ 17.572480416583318, 51.116592679788589 ], [ 17.57195692632332, 51.116000109396452 ], [ 17.573608864999322, 51.115460911376225 ], [ 17.572480416583318, 51.116592679788589 ] ], [ [ 17.5782234, 51.1108328 ], [ 17.577126826288797, 51.111932599929325 ], [ 17.577985707174971, 51.11100609322412 ], [ 17.5782234, 51.1108328 ] ], [ [ 17.5719298, 51.1061952 ], [ 17.577907311876068, 51.110599882387888 ], [ 17.576696168042616, 51.109762950054659 ], [ 17.5719298, 51.1061952 ] ], [ [ 17.562430940928838, 51.092600067768259 ], [ 17.562430932765949, 51.09260005896305 ], [ 17.562431387035915, 51.092599716455879 ], [ 17.562430940928838, 51.092600067768259 ] ], [ [ 17.565965617445787, 51.089816485852168 ], [ 17.567594017535843, 51.088505019683687 ], [ 17.567734224022303, 51.088423696084995 ], [ 17.565965617445787, 51.089816485852168 ] ], [ [ 17.567735186784155, 51.088423222855873 ], [ 17.56825487422228, 51.088205824381355 ], [ 17.569677806021268, 51.087836766041036 ], [ 17.567735186784155, 51.088423222855873 ] ], [ [ 17.5786197, 51.0851373 ], [ 17.578619656955905, 51.085137312994561 ], [ 17.57861975039085, 51.085137252748446 ], [ 17.5786197, 51.0851373 ] ], [ [ 17.5821334, 51.0818425 ], [ 17.582133195453789, 51.081842691803182 ], [ 17.582133319040189, 51.081842460214482 ], [ 17.5821334, 51.0818425 ] ], [ [ 17.580140521091391, 51.080863153085353 ], [ 17.579572320328737, 51.080664309568071 ], [ 17.578730104432964, 51.080170041628961 ], [ 17.580140521091391, 51.080863153085353 ] ], [ [ 17.576175224390113, 51.078914514323003 ], [ 17.572869672752955, 51.077566330229459 ], [ 17.571727378691612, 51.076728739792088 ], [ 17.576175224390113, 51.078914514323003 ] ], [ [ 17.564393669004446, 51.073124773475968 ], [ 17.562770919187102, 51.072084135092396 ], [ 17.562078538781133, 51.071143632197071 ], [ 17.564393669004446, 51.073124773475968 ] ], [ [ 17.560947717580213, 51.070175947296406 ], [ 17.560078669862147, 51.069536524256712 ], [ 17.55923866184801, 51.068713446040576 ], [ 17.560947717580213, 51.070175947296406 ] ], [ [ 17.5582078, 51.0678313 ], [ 17.558208159643055, 51.067831607759658 ], [ 17.558192450871502, 51.067829690584091 ], [ 17.5582078, 51.0678313 ] ], [ [ 17.552472120880818, 51.067229908755913 ], [ 17.549261212660191, 51.06784865550874 ], [ 17.547341647315388, 51.067797685114357 ], [ 17.552472120880818, 51.067229908755913 ] ], [ [ 17.5243183, 51.065163 ], [ 17.5342907, 51.069242 ], [ 17.539243781263437, 51.068693855192905 ], [ 17.534290743854399, 51.069242057751346 ], [ 17.5243183, 51.065163 ] ], [ [ 17.5234847336603, 51.064220652755672 ], [ 17.521386801110278, 51.062249425252617 ], [ 17.519199116082145, 51.059375759526837 ], [ 17.5234847336603, 51.064220652755672 ] ], [ [ 17.518703011449119, 51.058814899378845 ], [ 17.522956266086812, 51.058580121983255 ], [ 17.524259527418995, 51.058513443213997 ], [ 17.518703011449119, 51.058814899378845 ] ], [ [ 17.5244981, 51.0585005 ], [ 17.524450888249628, 51.058503061366373 ], [ 17.524497852764181, 51.058498418609929 ], [ 17.5244981, 51.0585005 ] ], [ [ 17.524493671662864, 51.058463219410775 ], [ 17.524355049751861, 51.057357910604026 ], [ 17.524250817228541, 51.056418714639086 ], [ 17.524493671662864, 51.058463219410775 ] ], [ [ 17.524095196495857, 51.055108599254794 ], [ 17.524061157914165, 51.05483026541733 ], [ 17.524003067454714, 51.054332997751978 ], [ 17.524095196495857, 51.055108599254794 ] ], [ [ 17.5212602, 51.053550199999982 ], [ 17.5238909, 51.0533887 ], [ 17.521240651294491, 51.053536358785941 ], [ 17.5212602, 51.053550199999982 ] ], [ [ 17.518416274491567, 51.051536594462242 ], [ 17.518402329174695, 51.051526757284655 ], [ 17.518402346332145, 51.051526732804881 ], [ 17.518416274491567, 51.051536594462242 ] ], [ [ 17.5211629, 51.0484327 ], [ 17.522324424151552, 51.048502121144772 ], [ 17.525508562766046, 51.04909546728674 ], [ 17.5211629, 51.0484327 ] ], [ [ 17.525396640243404, 51.030184632012691 ], [ 17.534854, 51.0431622 ], [ 17.525512414277568, 51.049095255808993 ], [ 17.534853892446179, 51.043162228706436 ], [ 17.525396640243404, 51.030184632012691 ] ], [ [ 17.520334296928283, 51.026497139331845 ], [ 17.51953896215316, 51.02596251262041 ], [ 17.518890777994145, 51.025445656812195 ], [ 17.520334296928283, 51.026497139331845 ] ], [ [ 17.5185247, 51.0174546 ], [ 17.518890691437438, 51.025445413050718 ], [ 17.518186494512886, 51.020140114565194 ], [ 17.5185247, 51.0174546 ] ], [ [ 17.514284001465938, 51.011631299520623 ], [ 17.514283947559829, 51.011631258523096 ], [ 17.514290989439676, 51.011629014418006 ], [ 17.514284001465938, 51.011631299520623 ] ], [ [ 17.522027, 51.009099299999974 ], [ 17.521650097571719, 51.007622168558441 ], [ 17.521718059826419, 51.007590495209335 ], [ 17.522027, 51.009099299999974 ] ], [ [ 17.52137375063176, 51.005908954876304 ], [ 17.521341979773947, 51.005787801449642 ], [ 17.521340205717138, 51.005745127921408 ], [ 17.52137375063176, 51.005908954876304 ] ], [ [ 17.5213402044654, 51.005745097811769 ], [ 17.52134020242978, 51.005745048846578 ], [ 17.521340343667884, 51.00574502959703 ], [ 17.5213402044654, 51.005745097811769 ] ], [ [ 17.52308096840207, 51.004892054421333 ], [ 17.524140717973701, 51.004166255160428 ], [ 17.524872467586185, 51.004014148746826 ], [ 17.52308096840207, 51.004892054421333 ] ], [ [ 17.528473342061648, 51.002249577396057 ], [ 17.528473409938908, 51.002249481876262 ], [ 17.528473474538306, 51.002249512477228 ], [ 17.528473342061648, 51.002249577396057 ] ], [ [ 17.542160414207853, 51.002159520623941 ], [ 17.542398952606813, 51.000564908897672 ], [ 17.543605726786648, 50.999874337042499 ], [ 17.542160414207853, 51.002159520623941 ] ], [ [ 17.5436597, 50.999789 ], [ 17.543657488294716, 50.999792496927007 ], [ 17.543659688934348, 50.999788971058685 ], [ 17.5436597, 50.999789 ] ], [ [ 17.541671210283852, 50.994588267234612 ], [ 17.541168149861022, 50.993493142949418 ], [ 17.540707509078157, 50.99206778528503 ], [ 17.541671210283852, 50.994588267234612 ] ], [ [ 17.540707409664606, 50.992067495413409 ], [ 17.541083227365178, 50.991801139100957 ], [ 17.542534168130842, 50.99120056258171 ], [ 17.540707409664606, 50.992067495413409 ] ], [ [ 17.5425343, 50.991200499999977 ], [ 17.539745442106263, 50.990585819829228 ], [ 17.539549195758095, 50.990088431668454 ], [ 17.5425343, 50.991200499999977 ] ], [ [ 17.539046204957902, 50.989901047880629 ], [ 17.538326708869501, 50.989785258603931 ], [ 17.538342763700825, 50.989638988440916 ], [ 17.539046204957902, 50.989901047880629 ] ], [ [ 17.5363473, 50.9888956 ], [ 17.536347397219583, 50.988895636218103 ], [ 17.536347279500188, 50.98889561625947 ], [ 17.5363473, 50.9888956 ] ], [ [ 17.5348723, 50.990065499999986 ], [ 17.534872290614803, 50.990065559518662 ], [ 17.534862042738467, 50.990063771843538 ], [ 17.5348723, 50.990065499999986 ] ], [ [ 17.529405556547918, 50.989144456122567 ], [ 17.5291382873292, 50.989137002433289 ], [ 17.528379846539803, 50.988971643198155 ], [ 17.529405556547918, 50.989144456122567 ] ], [ [ 17.527224014280737, 50.988776907111692 ], [ 17.526380645394859, 50.988644896114955 ], [ 17.526053180190065, 50.988579643497594 ], [ 17.527224014280737, 50.988776907111692 ] ], [ [ 17.5180734, 50.9872352 ], [ 17.518074226063682, 50.987235339176252 ], [ 17.518070641082758, 50.987235481931684 ], [ 17.5180734, 50.9872352 ] ], [ [ 17.499152354997765, 50.992746575862895 ], [ 17.499152283780347, 50.99274665174525 ], [ 17.498973262077406, 50.992650518735168 ], [ 17.499152354997765, 50.992746575862895 ] ], [ [ 17.490660875341739, 50.988192048918549 ], [ 17.493268228713866, 50.986418687256311 ], [ 17.495349234874553, 50.98501335686236 ], [ 17.490660875341739, 50.988192048918549 ] ], [ [ 17.5047352, 50.9849593 ], [ 17.500865085384405, 50.98497389827596 ], [ 17.501499288347105, 50.984442846381135 ], [ 17.5047352, 50.9849593 ] ], [ [ 17.5093734, 50.9694467 ], [ 17.5131247, 50.9723866 ], [ 17.514851600206242, 50.979674262628954 ], [ 17.513124631654559, 50.972386646509349 ], [ 17.5093734, 50.9694467 ] ], [ [ 17.5048573, 50.9697172 ], [ 17.504360492335845, 50.970436701448442 ], [ 17.503583518307863, 50.971151583435606 ], [ 17.5048573, 50.9697172 ] ], [ [ 17.5046443, 50.973141799999986 ], [ 17.503331748085241, 50.97229236843512 ], [ 17.503829600695983, 50.972459460969453 ], [ 17.5046443, 50.973141799999986 ] ], [ [ 17.502674430623465, 50.974698558317627 ], [ 17.502095081749545, 50.975208316421195 ], [ 17.50155038354999, 50.975586875914672 ], [ 17.502674430623465, 50.974698558317627 ] ], [ [ 17.501550066638927, 50.97558709616451 ], [ 17.492488361462115, 50.978903640230847 ], [ 17.488801479749263, 50.977406127999856 ], [ 17.487949703304707, 50.974504546459308 ], [ 17.480713262681959, 50.973191516629122 ], [ 17.501550066638927, 50.97558709616451 ] ], [ [ 17.478057763939862, 50.972886217483619 ], [ 17.476394504553173, 50.973126972363225 ], [ 17.469095231247547, 50.97185580706428 ], [ 17.478057763939862, 50.972886217483619 ] ], [ [ 17.469093416712393, 50.971856819454914 ], [ 17.466441691377181, 50.975258185472143 ], [ 17.464178304657466, 50.978236403136719 ], [ 17.464087021083021, 50.978201790384659 ], [ 17.469093416712393, 50.971856819454914 ] ], [ [ 17.4500319, 50.971736399999976 ], [ 17.464007410728716, 50.978302686402706 ], [ 17.4640073984663, 50.97830270435702 ], [ 17.462670045674681, 50.977780708338891 ], [ 17.4500319, 50.971736399999976 ] ], [ [ 17.432744305116156, 50.96742180699416 ], [ 17.432616329059236, 50.967395843605026 ], [ 17.431524774102897, 50.967117439613062 ], [ 17.432744305116156, 50.96742180699416 ] ], [ [ 17.431397202354759, 50.96708558745545 ], [ 17.4313971586331, 50.967085576667458 ], [ 17.43139996218467, 50.967070884971662 ], [ 17.431397202354759, 50.96708558745545 ] ], [ [ 17.4337955, 50.9543091 ], [ 17.4335917925834, 50.955394313613056 ], [ 17.431850507696986, 50.948594211346105 ], [ 17.4337955, 50.9543091 ] ], [ [ 17.430949830812505, 50.945947790535072 ], [ 17.430949798488736, 50.945947785412429 ], [ 17.430949815253829, 50.945947744819669 ], [ 17.430949830812505, 50.945947790535072 ] ], [ [ 17.43095746010524, 50.945929234596036 ], [ 17.431423742993253, 50.9448002393978 ], [ 17.431940041240257, 50.943560630378414 ], [ 17.43095746010524, 50.945929234596036 ] ], [ [ 17.4353574, 50.943169 ], [ 17.432811373628752, 50.943452795361914 ], [ 17.435357400821069, 50.943168881227422 ], [ 17.436919442231897, 50.940877548745782 ], [ 17.4353574, 50.943169 ] ], [ [ 17.4395824, 50.9369711 ], [ 17.437867109680639, 50.936140552100191 ], [ 17.437557915343593, 50.933306718304394 ], [ 17.4395824, 50.9369711 ] ], [ [ 17.437103675759641, 50.932484530192689 ], [ 17.436403839908643, 50.93200170202843 ], [ 17.436351628180628, 50.931123300126551 ], [ 17.437103675759641, 50.932484530192689 ] ], [ [ 17.434871529872321, 50.9284442750564 ], [ 17.434845020962705, 50.928456634033083 ], [ 17.434652103432704, 50.928047106213292 ], [ 17.434871529872321, 50.9284442750564 ] ], [ [ 17.433699967447598, 50.927595016009889 ], [ 17.43224107038731, 50.927245828476131 ], [ 17.430662324235421, 50.926152706469665 ], [ 17.433699967447598, 50.927595016009889 ] ], [ [ 17.430662060628915, 50.926152501054183 ], [ 17.430127417021094, 50.92559688544862 ], [ 17.429678018930158, 50.9236794475745 ], [ 17.430662060628915, 50.926152501054183 ] ], [ [ 17.42967800589447, 50.923679382261298 ], [ 17.429767950349476, 50.923121567489829 ], [ 17.430034365615384, 50.922606961788517 ], [ 17.42967800589447, 50.923679382261298 ] ], [ [ 17.4314591, 50.9183194 ], [ 17.431459085776048, 50.918319442805235 ], [ 17.431461656844483, 50.918318702749566 ], [ 17.4314591, 50.9183194 ] ], [ [ 17.432412655904077, 50.918059365699911 ], [ 17.434626813600151, 50.917418308449619 ], [ 17.435034869862843, 50.917344289039477 ], [ 17.432412655904077, 50.918059365699911 ] ], [ [ 17.4363843, 50.9169763 ], [ 17.436384246431761, 50.916976314608029 ], [ 17.436384084657462, 50.916976231889201 ], [ 17.4363843, 50.9169763 ] ], [ [ 17.435045656736111, 50.916552899824445 ], [ 17.434754442544257, 50.91652842483807 ], [ 17.434551250342704, 50.91639652376864 ], [ 17.435045656736111, 50.916552899824445 ] ], [ [ 17.429073095058961, 50.914663442769665 ], [ 17.427414539880143, 50.911102512702946 ], [ 17.427240062158834, 50.910573884885146 ], [ 17.429073095058961, 50.914663442769665 ] ], [ [ 17.427239244172231, 50.910573412796182 ], [ 17.421557047112785, 50.9124389811847 ], [ 17.417259340071482, 50.91259867157477 ], [ 17.427239244172231, 50.910573412796182 ] ], [ [ 17.417259037678729, 50.912598663881198 ], [ 17.416533330539156, 50.912565527837735 ], [ 17.41507818191484, 50.912113392324073 ], [ 17.417259037678729, 50.912598663881198 ] ], [ [ 17.4025619, 50.9186827 ], [ 17.401564870355578, 50.91941622186134 ], [ 17.400220201247137, 50.920080660461238 ], [ 17.4025619, 50.9186827 ] ], [ [ 17.400219519788322, 50.920080968478096 ], [ 17.398610323880195, 50.920663692927597 ], [ 17.39588698586472, 50.921139752628406 ], [ 17.400219519788322, 50.920080968478096 ] ], [ [ 17.382830922391346, 50.924330391943634 ], [ 17.381949342339109, 50.924614780452565 ], [ 17.380358813109037, 50.924934525730478 ], [ 17.382830922391346, 50.924330391943634 ] ], [ [ 17.380357638738158, 50.92493473361391 ], [ 17.378491419444753, 50.925192477960557 ], [ 17.374821379707754, 50.925338181819818 ], [ 17.380357638738158, 50.92493473361391 ] ], [ [ 17.3693514, 50.9257368 ], [ 17.368532435408376, 50.921401864665235 ], [ 17.370411494457759, 50.918192739440812 ], [ 17.3693514, 50.9257368 ] ], [ [ 17.365839177407182, 50.91446514463 ], [ 17.365839005026775, 50.914465012632263 ], [ 17.365839011239899, 50.914465009163258 ], [ 17.365839177407182, 50.91446514463 ] ], [ [ 17.361615824859783, 50.909738117333475 ], [ 17.359985324773746, 50.90857396490685 ], [ 17.357874607169791, 50.907050578650647 ], [ 17.35787466820593, 50.907050548997695 ], [ 17.361615824859783, 50.909738117333475 ] ], [ [ 17.357876862618742, 50.907049482894998 ], [ 17.358788451451996, 50.906606609374826 ], [ 17.359918792319409, 50.906131583262855 ], [ 17.357876862618742, 50.907049482894998 ] ], [ [ 17.359918934108286, 50.906131205544952 ], [ 17.357865174203109, 50.904662251567935 ], [ 17.357836114124492, 50.904607973198651 ], [ 17.359918934108286, 50.906131205544952 ] ], [ [ 17.352425212549967, 50.900650797844399 ], [ 17.354987900029297, 50.899654356906069 ], [ 17.359944835280601, 50.899359209276348 ], [ 17.352425212549967, 50.900650797844399 ] ], [ [ 17.363423820406108, 50.898761650385765 ], [ 17.364853061553948, 50.898464341626834 ], [ 17.365267768267579, 50.898444929445994 ], [ 17.363423820406108, 50.898761650385765 ] ], [ [ 17.367941882750078, 50.897985559138 ], [ 17.373130838354424, 50.895855185164898 ], [ 17.393042755022677, 50.890661357966884 ], [ 17.367941882750078, 50.897985559138 ] ], [ [ 17.393908, 50.8877555 ], [ 17.3978721, 50.8892522 ], [ 17.394075051542366, 50.888054786482599 ], [ 17.393907991155835, 50.887755526657187 ], [ 17.393801894671107, 50.886837544656252 ], [ 17.393736991182987, 50.884858500110276 ], [ 17.394321121062376, 50.883560930196474 ], [ 17.393908, 50.8877555 ] ], [ [ 17.3842896, 50.8620652 ], [ 17.3850974, 50.8755741 ], [ 17.3951123, 50.8755278 ], [ 17.395112288766477, 50.875527914058125 ], [ 17.385097377521202, 50.875574125331966 ], [ 17.3842896, 50.8620652 ] ], [ [ 17.3755504, 50.8599704 ], [ 17.381444821262122, 50.861383302057391 ], [ 17.377680085131939, 50.860546301318784 ], [ 17.3755504, 50.8599704 ] ], [ [ 17.374252400432407, 50.859912935900681 ], [ 17.367444820335223, 50.859878983837334 ], [ 17.365152164631525, 50.85951005683436 ], [ 17.374252400432407, 50.859912935900681 ] ], [ [ 17.364791745303727, 50.859415055434276 ], [ 17.356946620945038, 50.8569385010437 ], [ 17.354711619344162, 50.855175567500567 ], [ 17.364791745303727, 50.859415055434276 ] ], [ [ 17.351330904425559, 50.853753710257692 ], [ 17.35125501349167, 50.853827854685242 ], [ 17.351017771114428, 50.853622013005143 ], [ 17.351330904425559, 50.853753710257692 ] ], [ [ 17.3346062, 50.8521674 ], [ 17.337449363189972, 50.852133774997789 ], [ 17.332554832932829, 50.851663910581188 ], [ 17.3346062, 50.8521674 ] ], [ [ 17.331156020407533, 50.85132058474904 ], [ 17.329498083481223, 50.850998823732226 ], [ 17.32820140674329, 50.850595401655077 ], [ 17.331156020407533, 50.85132058474904 ] ], [ [ 17.339692978391898, 50.836061523800659 ], [ 17.330543, 50.8446159 ], [ 17.328201474896346, 50.850595208744998 ], [ 17.330399996205227, 50.84457719633717 ], [ 17.339692978391898, 50.836061523800659 ] ], [ [ 17.3371445, 50.8256136 ], [ 17.337144679471642, 50.825613692218816 ], [ 17.337144082660949, 50.825613500834187 ], [ 17.3371445, 50.8256136 ] ], [ [ 17.323495588268944, 50.822370420752712 ], [ 17.320485021292754, 50.821965978375502 ], [ 17.318344337638965, 50.821146436195733 ], [ 17.318344390477545, 50.821146421498781 ], [ 17.323495588268944, 50.822370420752712 ] ], [ [ 17.32989547883259, 50.816704381169828 ], [ 17.330354697099057, 50.816157002928946 ], [ 17.330766596220005, 50.81595506041176 ], [ 17.32989547883259, 50.816704381169828 ] ], [ [ 17.33678329165863, 50.810779598582776 ], [ 17.33844721209686, 50.808998637782061 ], [ 17.339810760924355, 50.808175419630565 ], [ 17.33678329165863, 50.810779598582776 ] ], [ [ 17.33981105026437, 50.808175291671851 ], [ 17.342843053132409, 50.807405773142165 ], [ 17.35016934832317, 50.807601200077585 ], [ 17.33981105026437, 50.808175291671851 ] ], [ [ 17.3502325, 50.8075977 ], [ 17.350229305931038, 50.807597877026012 ], [ 17.350231930887766, 50.807437257098606 ], [ 17.3502325, 50.8075977 ] ], [ [ 17.350230608332584, 50.807064405175986 ], [ 17.349090777371046, 50.805056206297529 ], [ 17.350209403021513, 50.801086249318224 ], [ 17.350230608332584, 50.807064405175986 ] ], [ [ 17.350209352764093, 50.801072080854183 ], [ 17.350060328205569, 50.800650786138576 ], [ 17.350204500769703, 50.799704216992886 ], [ 17.350209352764093, 50.801072080854183 ] ], [ [ 17.350204592732378, 50.799703897894027 ], [ 17.350430063093523, 50.799399058962308 ], [ 17.35060831771451, 50.799259363493647 ], [ 17.350204592732378, 50.799703897894027 ] ], [ [ 17.353134391153404, 50.796477948938815 ], [ 17.353097361101931, 50.795709692949998 ], [ 17.354658290276141, 50.794800010706766 ], [ 17.353134391153404, 50.796477948938815 ] ], [ [ 17.3519715, 50.7904198 ], [ 17.354151099888767, 50.793973128655942 ], [ 17.352601502757686, 50.793171951520939 ], [ 17.3519715, 50.7904198 ] ], [ [ 17.346172382558194, 50.78788444771024 ], [ 17.346172336966088, 50.787884443658442 ], [ 17.346172320314665, 50.787884261106939 ], [ 17.346172382558194, 50.78788444771024 ] ], [ [ 17.3448521, 50.7839263 ], [ 17.344746432897178, 50.784461910830572 ], [ 17.337977707679055, 50.785694155913745 ], [ 17.3448521, 50.7839263 ] ], [ [ 17.285862225503021, 50.794918392413585 ], [ 17.285861932193615, 50.794918568705064 ], [ 17.28586192349248, 50.794918492235183 ], [ 17.285862225503021, 50.794918392413585 ] ], [ [ 17.275572550430127, 50.788324354172289 ], [ 17.273764213522426, 50.78810974187013 ], [ 17.272186462204278, 50.786867026771894 ], [ 17.275572550430127, 50.788324354172289 ] ], [ [ 17.2711737, 50.780532399999977 ], [ 17.272186393541599, 50.786866959601674 ], [ 17.270696233447822, 50.784899733179302 ], [ 17.2711737, 50.780532399999977 ] ], [ [ 17.271173605759646, 50.780532362602067 ], [ 17.271082908962509, 50.78058055908204 ], [ 17.270973170930393, 50.780452822949322 ], [ 17.271173605759646, 50.780532362602067 ] ], [ [ 17.257128195687685, 50.774958645478797 ], [ 17.256810161043017, 50.7748741725364 ], [ 17.256280078923339, 50.77462208265095 ], [ 17.257128195687685, 50.774958645478797 ] ], [ [ 17.256220037402851, 50.774593528848698 ], [ 17.254930700764501, 50.773328911550571 ], [ 17.253912768509718, 50.772040886430389 ], [ 17.256220037402851, 50.774593528848698 ] ], [ [ 17.253912621513859, 50.772040700431418 ], [ 17.253912607435169, 50.77204068261716 ], [ 17.253912738263217, 50.7720407027726 ], [ 17.253912621513859, 50.772040700431418 ] ], [ [ 17.258885876925547, 50.772140429150063 ], [ 17.259379599806657, 50.772131594169991 ], [ 17.259505538652601, 50.772152855230161 ], [ 17.258885876925547, 50.772140429150063 ] ], [ [ 17.26244, 50.7722117 ], [ 17.262439864256375, 50.772211697277918 ], [ 17.262440086978149, 50.772211679096451 ], [ 17.26244, 50.7722117 ] ], [ [ 17.2695219, 50.77050969999997 ], [ 17.269521862953692, 50.770509708903354 ], [ 17.26952176213516, 50.770509374739333 ], [ 17.2695219, 50.77050969999997 ] ], [ [ 17.2684013, 50.7678659 ], [ 17.268438454448564, 50.767953557443427 ], [ 17.268422753127513, 50.767918014575457 ], [ 17.2684013, 50.7678659 ] ], [ [ 17.2795393, 50.7608871 ], [ 17.281689560099409, 50.759877195198065 ], [ 17.282869161120384, 50.759493506766418 ], [ 17.2795393, 50.7608871 ] ], [ [ 17.2975841, 50.753335099999987 ], [ 17.288330456723397, 50.757207878530366 ], [ 17.297584016944725, 50.753335095558953 ], [ 17.295423790702138, 50.750938571204983 ], [ 17.2975841, 50.753335099999987 ] ], [ [ 17.294829162578459, 50.750278923337824 ], [ 17.293431024946603, 50.748996334541438 ], [ 17.291392670469829, 50.746466744901873 ], [ 17.291392724208993, 50.746466726856134 ], [ 17.294829162578459, 50.750278923337824 ] ], [ [ 17.3011615, 50.7430308 ], [ 17.301161422874191, 50.743030827126837 ], [ 17.301142769485132, 50.743015942240838 ], [ 17.3011615, 50.7430308 ] ], [ [ 17.2942758, 50.7375688 ], [ 17.293929756170204, 50.737793233995383 ], [ 17.2938939659672, 50.737809789221259 ], [ 17.2942758, 50.7375688 ] ], [ [ 17.275552111777898, 50.744597883221914 ], [ 17.287589519798708, 50.741788752441209 ], [ 17.285505928700665, 50.743103837763584 ], [ 17.279658681062159, 50.744612492771942 ], [ 17.275552111777898, 50.744597883221914 ] ], [ [ 17.275551795663375, 50.744597736280973 ], [ 17.274199401213622, 50.743943262114044 ], [ 17.273815997813017, 50.743206976621167 ], [ 17.275551795663375, 50.744597736280973 ] ], [ [ 17.2705771, 50.7406119 ], [ 17.270577170004511, 50.740611956089161 ], [ 17.270576902922745, 50.740611863133786 ], [ 17.2705771, 50.7406119 ] ], [ [ 17.266794555753851, 50.739904319256176 ], [ 17.2649876169151, 50.739810146565127 ], [ 17.262535513485496, 50.739107602522651 ], [ 17.266794555753851, 50.739904319256176 ] ], [ [ 17.262535508590574, 50.739107483168148 ], [ 17.262533502231893, 50.739058561446249 ], [ 17.262539700086084, 50.739050478829256 ], [ 17.262535508590574, 50.739107483168148 ] ], [ [ 17.261876845909409, 50.730490416230857 ], [ 17.261876451577908, 50.730490642556212 ], [ 17.261876421611415, 50.730490591093442 ], [ 17.261876845909409, 50.730490416230857 ] ], [ [ 17.257362781767132, 50.724587073196162 ], [ 17.257117377485383, 50.7246670791749 ], [ 17.256021571225876, 50.722832854746258 ], [ 17.257362781767132, 50.724587073196162 ] ], [ [ 17.2521179, 50.7177271 ], [ 17.253774269412126, 50.719893526294165 ], [ 17.252252737678791, 50.718230687715739 ], [ 17.2521179, 50.7177271 ] ], [ [ 17.247800534893553, 50.719409590197905 ], [ 17.245786612621082, 50.719141068368017 ], [ 17.240997131586603, 50.718433218945854 ], [ 17.247800534893553, 50.719409590197905 ] ], [ [ 17.2404953, 50.7183612 ], [ 17.240500193138278, 50.718361902224949 ], [ 17.240494847547318, 50.718360370061987 ], [ 17.2404953, 50.7183612 ] ], [ [ 17.240326436740439, 50.718051452611142 ], [ 17.239522170430213, 50.716776901654882 ], [ 17.239329840623427, 50.716223387431043 ], [ 17.240326436740439, 50.718051452611142 ] ], [ [ 17.2388724, 50.715384299999982 ], [ 17.23796025353322, 50.715606249406868 ], [ 17.237563123520331, 50.715633265175683 ], [ 17.2388724, 50.715384299999982 ] ], [ [ 17.228812702442127, 50.71729717892218 ], [ 17.228758661445955, 50.715728491655049 ], [ 17.229112885512102, 50.714706325043792 ], [ 17.228812702442127, 50.71729717892218 ] ], [ [ 17.2291129, 50.7147062 ], [ 17.229112899163663, 50.714706207218342 ], [ 17.229112833079402, 50.714706217548972 ], [ 17.2291129, 50.7147062 ] ], [ [ 17.2257171, 50.7155967 ], [ 17.225789161337687, 50.715577802944466 ], [ 17.22577950995737, 50.715585030161144 ], [ 17.2257171, 50.7155967 ] ], [ [ 17.221535347459827, 50.710142108517559 ], [ 17.221435931109426, 50.708130365484735 ], [ 17.222252168044214, 50.706728952158144 ], [ 17.221535347459827, 50.710142108517559 ] ], [ [ 17.2222522, 50.7067288 ], [ 17.221624618190305, 50.705881058844334 ], [ 17.221710875589793, 50.705329987023909 ], [ 17.2222522, 50.7067288 ] ], [ [ 17.220178661875192, 50.701370482657893 ], [ 17.224317731296402, 50.700139253187821 ], [ 17.229559738750734, 50.698741195810854 ], [ 17.220178661875192, 50.701370482657893 ] ], [ [ 17.2590771, 50.6904682 ], [ 17.259077059132888, 50.690468211454053 ], [ 17.259076076577436, 50.6904669766366 ], [ 17.2590771, 50.6904682 ] ], [ [ 17.2519754, 50.6867008 ], [ 17.25594422135854, 50.686723598399375 ], [ 17.253826278480965, 50.687190673412836 ], [ 17.2519754, 50.6867008 ] ], [ [ 17.2472335, 50.6821091 ], [ 17.247233576316301, 50.682109173898965 ], [ 17.247233486725733, 50.68210909894119 ], [ 17.2472335, 50.6821091 ] ], [ [ 17.246852606349179, 50.68207871842349 ], [ 17.241962533009673, 50.682057468930893 ], [ 17.234746297823548, 50.68111307161395 ], [ 17.246852606349179, 50.68207871842349 ] ], [ [ 17.234745668838112, 50.681112473251659 ], [ 17.237843034802868, 50.67466757149797 ], [ 17.238342267599521, 50.67406547227008 ], [ 17.234745668838112, 50.681112473251659 ] ], [ [ 17.238544272396627, 50.673669673878884 ], [ 17.238817147101006, 50.672729869775317 ], [ 17.239574196451549, 50.671651690693245 ], [ 17.238544272396627, 50.673669673878884 ] ], [ [ 17.239483536484965, 50.671335144995183 ], [ 17.238323413930701, 50.670065637362811 ], [ 17.237867696874307, 50.665732358370263 ], [ 17.239483536484965, 50.671335144995183 ] ], [ [ 17.237560675192647, 50.664667786762905 ], [ 17.237548432312217, 50.664650140962415 ], [ 17.237516994806754, 50.664516328734372 ], [ 17.237560675192647, 50.664667786762905 ] ], [ [ 17.237517013870573, 50.664515702343458 ], [ 17.237592746443401, 50.664086637438828 ], [ 17.237682296257592, 50.664083655837075 ], [ 17.237517013870573, 50.664515702343458 ] ], [ [ 17.238535615075591, 50.661853088982376 ], [ 17.2384848801684, 50.661599086331783 ], [ 17.238720205405468, 50.66137057170652 ], [ 17.238535615075591, 50.661853088982376 ] ], [ [ 17.2389565, 50.6607529 ], [ 17.238887352213577, 50.660933651622038 ], [ 17.238879763929187, 50.66079365633253 ], [ 17.2389565, 50.6607529 ] ], [ [ 17.2379557, 50.6576621 ], [ 17.237966540710943, 50.65769557968563 ], [ 17.237939934572427, 50.657654733911656 ], [ 17.2379557, 50.6576621 ] ], [ [ 17.235323136325466, 50.656432086003889 ], [ 17.233662926851732, 50.656361788089463 ], [ 17.232573525611983, 50.655147384063277 ], [ 17.235323136325466, 50.656432086003889 ] ], [ [ 17.232481159528035, 50.655104227813311 ], [ 17.232481134060283, 50.655104228207591 ], [ 17.232481138895675, 50.655104218173236 ], [ 17.232481159528035, 50.655104227813311 ] ], [ [ 17.2362425, 50.654039899999987 ], [ 17.232481155176401, 50.655104184387646 ], [ 17.237492472425764, 50.652531953948085 ], [ 17.2362425, 50.654039899999987 ] ], [ [ 17.237573045307926, 50.652434752156225 ], [ 17.237650688319238, 50.651525614492904 ], [ 17.238930653802161, 50.650796955732311 ], [ 17.237573045307926, 50.652434752156225 ] ], [ [ 17.238173947672578, 50.650543393821764 ], [ 17.236322092647331, 50.649941275413731 ], [ 17.235381554933717, 50.649607963845916 ], [ 17.238173947672578, 50.650543393821764 ] ], [ [ 17.2349956, 50.6454574 ], [ 17.231025122299052, 50.642263261904958 ], [ 17.230220983703759, 50.640514686650668 ], [ 17.2349956, 50.6454574 ] ], [ [ 17.2339922, 50.6322172 ], [ 17.230221054802179, 50.640514259413045 ], [ 17.231856772955854, 50.634772997374746 ], [ 17.233792602506963, 50.632430860264591 ], [ 17.233992135761284, 50.63221724724778 ], [ 17.234349336370627, 50.631921905570458 ], [ 17.236828318190824, 50.630863719091231 ], [ 17.2339922, 50.6322172 ] ], [ [ 17.2419197, 50.6241957 ], [ 17.242731738108979, 50.628046106533979 ], [ 17.242170994494835, 50.626094705463309 ], [ 17.2419197, 50.6241957 ] ], [ [ 17.2442273, 50.6188273 ], [ 17.244227248079074, 50.618827420788833 ], [ 17.244226461855217, 50.61882672762264 ], [ 17.2442273, 50.6188273 ] ], [ [ 17.237159005399782, 50.614000291722654 ], [ 17.236721054356348, 50.613759483466083 ], [ 17.236021996613058, 50.613223817178891 ], [ 17.237159005399782, 50.614000291722654 ] ], [ [ 17.235920298779249, 50.613238277936318 ], [ 17.23059956968067, 50.614893161229006 ], [ 17.227254098688054, 50.614555691318962 ], [ 17.235920298779249, 50.613238277936318 ] ], [ [ 17.220997505011503, 50.61550680255025 ], [ 17.220602382838511, 50.61564313495942 ], [ 17.218753793253207, 50.615847885823889 ], [ 17.220997505011503, 50.61550680255025 ] ], [ [ 17.217814418015372, 50.615862190492869 ], [ 17.217798630810311, 50.615864229541764 ], [ 17.217722118669787, 50.615863594760341 ], [ 17.217814418015372, 50.615862190492869 ] ], [ [ 17.216881506222279, 50.615876384067889 ], [ 17.208822749759328, 50.616214070793838 ], [ 17.190531248230311, 50.616277284095844 ], [ 17.216881506222279, 50.615876384067889 ] ], [ [ 17.189137034560989, 50.616298496043704 ], [ 17.188277691745608, 50.616351452940535 ], [ 17.18640884006911, 50.616340003540451 ], [ 17.189137034560989, 50.616298496043704 ] ], [ [ 17.163199890748682, 50.613282609894398 ], [ 17.161487508490037, 50.613084562200171 ], [ 17.160978139183129, 50.612989841811512 ], [ 17.163199890748682, 50.613282609894398 ] ], [ [ 17.155474932199546, 50.612264579522638 ], [ 17.154316355698541, 50.611970979329911 ], [ 17.153144560685124, 50.611216198186909 ], [ 17.155474932199546, 50.612264579522638 ] ], [ [ 17.1513174, 50.6103942 ], [ 17.151317607987298, 50.610394293568774 ], [ 17.151316598251483, 50.610394188050009 ], [ 17.1513174, 50.6103942 ] ], [ [ 17.1400795, 50.6102267 ], [ 17.145454889520508, 50.610306819750548 ], [ 17.139441301315291, 50.610131189751009 ], [ 17.1400795, 50.6102267 ] ], [ [ 17.131278731017641, 50.608909612301595 ], [ 17.12396827147699, 50.608438901851478 ], [ 17.12186845239145, 50.6075013078407 ], [ 17.131278731017641, 50.608909612301595 ] ], [ [ 17.121868391812789, 50.607501276377825 ], [ 17.121237137906313, 50.606211186345597 ], [ 17.121355834488313, 50.606022418589269 ], [ 17.121868391812789, 50.607501276377825 ] ], [ [ 17.1149183, 50.5874485 ], [ 17.119617461908579, 50.601006773106903 ], [ 17.116429934599473, 50.595841515572339 ], [ 17.1149183, 50.5874485 ] ], [ [ 17.114199188108646, 50.587313782291822 ], [ 17.111830979166506, 50.586937242879607 ], [ 17.111346781590054, 50.586779415284994 ], [ 17.114199188108646, 50.587313782291822 ] ], [ [ 17.111343963868006, 50.586776944677858 ], [ 17.111257355084039, 50.586700951385566 ], [ 17.11125833949033, 50.586700107949781 ], [ 17.111343963868006, 50.586776944677858 ] ], [ [ 17.101283145183313, 50.577748670131676 ], [ 17.101137914787522, 50.577633412035205 ], [ 17.099261104601176, 50.575934152040134 ], [ 17.101283145183313, 50.577748670131676 ] ], [ [ 17.099248898309472, 50.575923145551933 ], [ 17.099197865466223, 50.575783592590099 ], [ 17.099237773827696, 50.575564851063177 ], [ 17.099248898309472, 50.575923145551933 ] ], [ [ 17.0991353, 50.5722644 ], [ 17.099135302931487, 50.572264494416537 ], [ 17.099135084727038, 50.572264062315504 ], [ 17.0991353, 50.5722644 ] ], [ [ 17.098280762184928, 50.570923942874224 ], [ 17.09747078518614, 50.569917621018632 ], [ 17.097286030369496, 50.56936357266391 ], [ 17.098280762184928, 50.570923942874224 ] ], [ [ 17.096900194066677, 50.568758336696149 ], [ 17.096602944843312, 50.568551484513705 ], [ 17.096493052833733, 50.568119681089271 ], [ 17.096900194066677, 50.568758336696149 ] ], [ [ 17.094578733893535, 50.565116815190159 ], [ 17.094315226726046, 50.564860360700017 ], [ 17.094094959748595, 50.56435795058708 ], [ 17.094578733893535, 50.565116815190159 ] ], [ [ 17.0755527, 50.5558757 ], [ 17.081044580127966, 50.558387935790186 ], [ 17.075552671647809, 50.555875715143699 ], [ 17.069028192823193, 50.545084265861988 ], [ 17.0755527, 50.5558757 ] ], [ [ 17.067225869433212, 50.543803216563674 ], [ 17.064575857908121, 50.543211653119826 ], [ 17.06358744860372, 50.542094869773877 ], [ 17.067225869433212, 50.543803216563674 ] ], [ [ 17.0624901, 50.5307928 ], [ 17.06226150221088, 50.531984944345815 ], [ 17.066177396309236, 50.527058640819519 ], [ 17.0624901, 50.5307928 ] ], [ [ 17.066801198375519, 50.526426910679795 ], [ 17.06696403684586, 50.525754161784135 ], [ 17.068713697173784, 50.52449010540397 ], [ 17.066801198375519, 50.526426910679795 ] ], [ [ 17.068714190594385, 50.524489800198502 ], [ 17.069614968203787, 50.524036201812869 ], [ 17.070989395789724, 50.523708405536439 ], [ 17.068714190594385, 50.524489800198502 ] ], [ [ 17.0743245, 50.522563 ], [ 17.074324458870262, 50.522563014125566 ], [ 17.074324502444203, 50.522562970784008 ], [ 17.0743245, 50.522563 ] ], [ [ 17.074364053184087, 50.522090213808582 ], [ 17.073433330611294, 50.520777446944791 ], [ 17.074767797828475, 50.51726418280429 ], [ 17.074364053184087, 50.522090213808582 ] ], [ [ 17.0747794, 50.5171255 ], [ 17.073529376672283, 50.515944453683886 ], [ 17.074220818710177, 50.514959397673188 ], [ 17.074309827110906, 50.514959067933709 ], [ 17.0747794, 50.5171255 ] ], [ [ 17.0742861, 50.5148496 ], [ 17.074286112439296, 50.514849657390222 ], [ 17.074285554528618, 50.514849490871384 ], [ 17.0742861, 50.5148496 ] ], [ [ 17.072632961293138, 50.514518868222197 ], [ 17.071154489735385, 50.514717076173497 ], [ 17.068811697973356, 50.51375437507599 ], [ 17.072632961293138, 50.514518868222197 ] ], [ [ 17.068355348629577, 50.513663076487951 ], [ 17.06844541760551, 50.513798366272106 ], [ 17.068349453844849, 50.513667397778491 ], [ 17.068355348629577, 50.513663076487951 ] ], [ [ 17.06729224085538, 50.51309096992135 ], [ 17.067344163377395, 50.513186017231597 ], [ 17.067249538827742, 50.513105272903786 ], [ 17.06729224085538, 50.51309096992135 ] ], [ [ 17.065749282238546, 50.511912861458349 ], [ 17.066351412981831, 50.51265031479231 ], [ 17.065600365636683, 50.511994193681595 ], [ 17.065749282238546, 50.511912861458349 ] ], [ [ 17.065349215254017, 50.511607394872854 ], [ 17.06539077997326, 50.511719542428096 ], [ 17.065279904553009, 50.511615404192192 ], [ 17.065349215254017, 50.511607394872854 ] ], [ [ 17.063642645542984, 50.510304363023934 ], [ 17.061660831528155, 50.509376576929505 ], [ 17.06001741226218, 50.507536357478024 ], [ 17.063642645542984, 50.510304363023934 ] ], [ [ 17.059753548065739, 50.507334886978732 ], [ 17.059682226432706, 50.507321993062384 ], [ 17.059616051272034, 50.507229902869277 ], [ 17.059753548065739, 50.507334886978732 ] ], [ [ 17.059463690433589, 50.507113569487913 ], [ 17.059189289021472, 50.50700544829197 ], [ 17.059217910276928, 50.506925906851066 ], [ 17.059463690433589, 50.507113569487913 ] ], [ [ 17.058914317114926, 50.50669410175302 ], [ 17.058928722575267, 50.50673002464395 ], [ 17.058890106428677, 50.506708417679675 ], [ 17.058914317114926, 50.50669410175302 ] ], [ [ 17.057510087254236, 50.505621918050323 ], [ 17.057149090890803, 50.505456230679513 ], [ 17.056752966010947, 50.505043826755774 ], [ 17.057510087254236, 50.505621918050323 ] ], [ [ 17.056752809554609, 50.505043649878061 ], [ 17.056511353065829, 50.50277807570076 ], [ 17.057494433538753, 50.501153209908317 ], [ 17.056752809554609, 50.505043649878061 ] ], [ [ 17.0577201, 50.4999694 ], [ 17.057552907279025, 50.500846466085029 ], [ 17.058034882664078, 50.49977422117729 ], [ 17.0577201, 50.4999694 ] ], [ [ 17.061205876122571, 50.497808068524478 ], [ 17.061229075475573, 50.497790761412709 ], [ 17.061244428317774, 50.497784164501375 ], [ 17.061205876122571, 50.497808068524478 ] ], [ [ 17.0626375, 50.4969204 ], [ 17.062637290013324, 50.496920530200796 ], [ 17.062637425389894, 50.496920297180132 ], [ 17.0626375, 50.4969204 ] ], [ [ 17.0588419, 50.4916897 ], [ 17.058842110250644, 50.491689989745502 ], [ 17.058842304761612, 50.491689495576878 ], [ 17.0588419, 50.4916897 ] ], [ [ 17.0643416, 50.4889121 ], [ 17.061374177933704, 50.490410783843004 ], [ 17.061009409956654, 50.48981129393362 ], [ 17.0643416, 50.4889121 ] ], [ [ 17.062282757317409, 50.486022287379292 ], [ 17.061939969103808, 50.486012260595146 ], [ 17.061966569076326, 50.485928794581127 ], [ 17.062282757317409, 50.486022287379292 ] ], [ [ 17.061622847731773, 50.485827160598198 ], [ 17.059160456362175, 50.485906823679613 ], [ 17.058677228834728, 50.484956239538633 ], [ 17.05867733414112, 50.484956210095092 ], [ 17.061622847731773, 50.485827160598198 ] ], [ [ 17.0622698, 50.4838686 ], [ 17.062269585359573, 50.483868664980633 ], [ 17.062269802248338, 50.483868524278222 ], [ 17.0622698, 50.4838686 ] ], [ [ 17.06227436057172, 50.483715004656418 ], [ 17.061546664768471, 50.483417729506932 ], [ 17.062351088303672, 50.48113089392028 ], [ 17.06227436057172, 50.483715004656418 ] ], [ [ 17.0623511, 50.4811305 ], [ 17.062351097539235, 50.481130582875998 ], [ 17.062349417809376, 50.481130235027898 ], [ 17.0623511, 50.4811305 ] ], [ [ 17.0626535, 50.479698 ], [ 17.060238317595346, 50.4807976919884 ], [ 17.060238210639017, 50.480797686858736 ], [ 17.060686635711253, 50.479639422517842 ], [ 17.0626535, 50.479698 ] ], [ [ 17.0583832, 50.4749559 ], [ 17.058383430259926, 50.474955964354997 ], [ 17.058370339262922, 50.474958393635205 ], [ 17.0583832, 50.4749559 ] ], [ [ 17.057220703121448, 50.475181302566916 ], [ 17.056416902840656, 50.47548759657225 ], [ 17.054626376261151, 50.475684330097152 ], [ 17.057220703121448, 50.475181302566916 ] ], [ [ 17.050861505681404, 50.471473818223004 ], [ 17.051180182039182, 50.471954693101459 ], [ 17.050861338013902, 50.471473770597477 ], [ 17.050861505681404, 50.471473818223004 ] ], [ [ 17.053578734620263, 50.471216110295707 ], [ 17.053572306208501, 50.469533875186954 ], [ 17.054992375648474, 50.469224034315708 ], [ 17.053578734620263, 50.471216110295707 ] ], [ [ 17.054992157545314, 50.469223727531528 ], [ 17.053875145485378, 50.468080796508005 ], [ 17.053665135391444, 50.467732431615161 ], [ 17.054992157545314, 50.469223727531528 ] ], [ [ 17.0516004, 50.4654121 ], [ 17.051600827886933, 50.465412580855599 ], [ 17.051599942782435, 50.465412013319586 ], [ 17.0516004, 50.4654121 ] ], [ [ 17.0398683, 50.4631879 ], [ 17.039868338938678, 50.463187907382085 ], [ 17.039868276902375, 50.463187905279511 ], [ 17.0398683, 50.4631879 ] ], [ [ 17.036403172411557, 50.463979938663051 ], [ 17.035303566353587, 50.464303736492148 ], [ 17.03447606882974, 50.464420424765073 ], [ 17.036403172411557, 50.463979938663051 ] ], [ [ 17.027132236353641, 50.466099035179155 ], [ 17.02701763599967, 50.466151952717134 ], [ 17.026322085340457, 50.466284214774703 ], [ 17.027132236353641, 50.466099035179155 ] ], [ [ 17.026319698451502, 50.466284487029384 ], [ 17.02557164797695, 50.466240605464904 ], [ 17.024661453516376, 50.466017459233704 ], [ 17.026319698451502, 50.466284487029384 ] ], [ [ 17.0191851, 50.465135599999989 ], [ 17.019185190743187, 50.4651356146124 ], [ 17.019185044083379, 50.465135672973879 ], [ 17.0191851, 50.465135599999989 ] ], [ [ 17.0165783, 50.4685376 ], [ 17.017342125144626, 50.46754077126667 ], [ 17.017209970731837, 50.468005147520643 ], [ 17.0165783, 50.4685376 ] ], [ [ 17.017913170497057, 50.468884105630373 ], [ 17.01896800835959, 50.469076052440201 ], [ 17.025098398393396, 50.47074924680107 ], [ 17.017913170497057, 50.468884105630373 ] ], [ [ 17.025101233705687, 50.470750023523685 ], [ 17.024607435287535, 50.470925998741826 ], [ 17.024591512312352, 50.470930891566653 ], [ 17.025101233705687, 50.470750023523685 ] ], [ [ 17.0200922, 50.4803213 ], [ 17.01725778283852, 50.473533398382827 ], [ 17.020719772864783, 50.479989034146449 ], [ 17.0200922, 50.4803213 ] ], [ [ 17.017575204697227, 50.480146627613465 ], [ 17.016760738819499, 50.480602516554008 ], [ 17.015917791765066, 50.480031607822987 ], [ 17.017575204697227, 50.480146627613465 ] ], [ [ 17.007343109092599, 50.479436548990492 ], [ 17.007333548431866, 50.479437023505106 ], [ 17.007281865463305, 50.479432298855073 ], [ 17.007343109092599, 50.479436548990492 ] ], [ [ 17.0059514, 50.4743985 ], [ 17.00549088096292, 50.474656452879529 ], [ 17.005123462197155, 50.474751163763784 ], [ 17.0059514, 50.4743985 ] ], [ [ 17.002117852498074, 50.476031416489619 ], [ 17.002097823604796, 50.476106954245651 ], [ 17.002021094847926, 50.476072630838026 ], [ 17.002117852498074, 50.476031416489619 ] ], [ [ 16.9927524, 50.4748624 ], [ 16.995778379020319, 50.477381244070344 ], [ 16.993126667852852, 50.476033806570101 ], [ 16.9927524, 50.4748624 ] ], [ [ 16.988864325618326, 50.475809658460598 ], [ 16.987909559477217, 50.476447448714751 ], [ 16.986458896760805, 50.47639569736134 ], [ 16.988864325618326, 50.475809658460598 ] ], [ [ 16.985869005344615, 50.476539413653775 ], [ 16.985858926250728, 50.476541886356955 ], [ 16.985858896518405, 50.476541876485044 ], [ 16.985869005344615, 50.476539413653775 ] ], [ [ 16.98585867780255, 50.476541803865636 ], [ 16.984207393571911, 50.475845163210309 ], [ 16.982925863710072, 50.475505986867589 ], [ 16.983822233586078, 50.474939706142891 ], [ 16.98585867780255, 50.476541803865636 ] ], [ [ 16.982312389999873, 50.473751902943754 ], [ 16.980917390988534, 50.474449622941115 ], [ 16.97908338882829, 50.4747024272218 ], [ 16.982312389999873, 50.473751902943754 ] ], [ [ 16.977406735862914, 50.475195985218463 ], [ 16.976843205077536, 50.475374376498927 ], [ 16.976000500957671, 50.475609939982505 ], [ 16.977406735862914, 50.475195985218463 ] ], [ [ 16.978876, 50.47925 ], [ 16.9759969, 50.475611 ], [ 16.977205822914438, 50.476860519946321 ], [ 16.978876, 50.47925 ] ], [ [ 16.9771733, 50.480084 ], [ 16.977173375268048, 50.480083963132927 ], [ 16.977173692142198, 50.480084271481232 ], [ 16.9771733, 50.480084 ] ], [ [ 16.977646449270054, 50.480411562673446 ], [ 16.980070474921344, 50.480964995092549 ], [ 16.980473266900201, 50.482368577084905 ], [ 16.977646449270054, 50.480411562673446 ] ], [ [ 16.9786297, 50.4833474 ], [ 16.980473258469356, 50.48236862204935 ], [ 16.97979084616648, 50.483111248124459 ], [ 16.9786297, 50.4833474 ] ], [ [ 16.977437592859147, 50.484070211448646 ], [ 16.977437875693568, 50.48407057513753 ], [ 16.977437782273132, 50.484070566748223 ], [ 16.977437592859147, 50.484070211448646 ] ], [ [ 16.976547409147866, 50.484605378633049 ], [ 16.976372208861928, 50.484800692134719 ], [ 16.975438730361304, 50.485271263423485 ], [ 16.976547409147866, 50.484605378633049 ] ], [ [ 16.9749505, 50.4855645 ], [ 16.974950545797974, 50.485564472493216 ], [ 16.974950494732905, 50.485564576551702 ], [ 16.9749505, 50.4855645 ] ], [ [ 16.974919615824671, 50.486013369167814 ], [ 16.975244923178465, 50.486935158280176 ], [ 16.974735501327007, 50.488689280713331 ], [ 16.974919615824671, 50.486013369167814 ] ], [ [ 16.9702743, 50.488344299999987 ], [ 16.974735482224318, 50.488689298625332 ], [ 16.973255229162877, 50.48918298346976 ], [ 16.971384445676403, 50.488933644520024 ], [ 16.970274286805594, 50.488344320961382 ], [ 16.97010825842079, 50.488220234285315 ], [ 16.970910831856933, 50.484936464821224 ], [ 16.9702743, 50.488344299999987 ] ], [ [ 16.9709109, 50.4849361 ], [ 16.97091088934209, 50.484936157059821 ], [ 16.970910673327587, 50.484936045319522 ], [ 16.9709109, 50.4849361 ] ], [ [ 16.9688382, 50.4844361 ], [ 16.968839202288763, 50.484436341783379 ], [ 16.968838170721412, 50.484436131161289 ], [ 16.9688382, 50.4844361 ] ], [ [ 16.96740600970605, 50.485960384182853 ], [ 16.967552761982773, 50.486461324536791 ], [ 16.96554138683161, 50.487944907584875 ], [ 16.96740600970605, 50.485960384182853 ] ], [ [ 16.965541157744266, 50.487944999376914 ], [ 16.964893607592234, 50.488097298920209 ], [ 16.963851170747994, 50.487937597186061 ], [ 16.965541157744266, 50.487944999376914 ] ], [ [ 16.958965992078536, 50.487916194334375 ], [ 16.958965921339942, 50.487916279338648 ], [ 16.958965426797988, 50.487915790032012 ], [ 16.958965992078536, 50.487916194334375 ] ] ] } }
]
}
