{
"type": "FeatureCollection",
"name": "opolskie",
"crs": { "type": "name", "properties": { "name": "urn:ogc:def:crs:OGC:1.3:CRS84" } },
"features": [
{ "type": "Feature", "properties": { "name": "opolskie", "osm_relation": 224460 }, "geometry": { "type": "Polygon", "coordinates": [ [ [ 16.907898, 50.4494483 ], [ 16.9175784, 50.444589299999983 ], [ 16.921939, 50.4404964 ], [ 16.9460668, 50.4339739 ], [ 16.9633748, 50.4260345 ], [ 16.9712333, 50.4213653 ], [ 16.9740102, 50.4177556 ], [ 16.9833757, 50.4200796 ], [ 16.9982906, 50.4277499 ], [ 17.0061543, 50.42448850000001 ], [ 17.0135267, 50.4185833 ], [ 17.0183386, 50.421414 ], [ 17.0242706, 50.421474 ], [ 17.0297608, 50.415385 ], [ 17.0379168, 50.4148471 ], [ 17.0525324, 50.4069605 ], [ 17.0683886, 50.4057038 ], [ 17.0823351, 50.4019955 ], [ 17.0851377, 50.4057858 ], [ 17.102, 50.406198 ], [ 17.1107534, 50.4049625 ], [ 17.1111076, 50.3936892 ], [ 17.1235332, 50.394081 ], [ 17.14333, 50.3804206 ], [ 17.1520977, 50.3815452 ], [ 17.1572199, 50.380069399999989 ], [ 17.1625207, 50.3836585 ], [ 17.1794736, 50.3861587 ], [ 17.1840374, 50.3899563 ], [ 17.2031763, 50.3865865 ], [ 17.2029419, 50.3817252 ], [ 17.1991141, 50.375077599999983 ], [ 17.2011425, 50.3640162 ], [ 17.2130489, 50.3575444 ], [ 17.2246246, 50.3452138 ], [ 17.2420901, 50.3372768 ], [ 17.2473241, 50.332074799999987 ], [ 17.2642972, 50.3280185 ], [ 17.2740156, 50.3218278 ], [ 17.282052, 50.3190052 ], [ 17.2915621, 50.317557899999983 ], [ 17.3034527, 50.3201387 ], [ 17.3106695, 50.3201631 ], [ 17.3277934, 50.327099 ], [ 17.3486618, 50.3283501 ], [ 17.3500291, 50.3253427 ], [ 17.348227, 50.3227956 ], [ 17.3404897, 50.3226814 ], [ 17.3375078, 50.3130628 ], [ 17.3486198, 50.3117921 ], [ 17.3536803, 50.3080428 ], [ 17.3459863, 50.2978303 ], [ 17.3447156, 50.2912956 ], [ 17.3481961, 50.2874372 ], [ 17.3377348, 50.283473 ], [ 17.3438025, 50.2793673 ], [ 17.343227, 50.2748063 ], [ 17.3462665, 50.2675531 ], [ 17.3503003, 50.2638066 ], [ 17.3580362, 50.2652927 ], [ 17.3625358, 50.264328599999985 ], [ 17.3624859, 50.2764 ], [ 17.3661241, 50.2820573 ], [ 17.3862027, 50.282879399999985 ], [ 17.4008289, 50.2795914 ], [ 17.4068702, 50.2739301 ], [ 17.420671, 50.2774226 ], [ 17.4311863, 50.263054 ], [ 17.4276817, 50.25864450000001 ], [ 17.4296899, 50.2541756 ], [ 17.4382317, 50.2516618 ], [ 17.4549119, 50.2568118 ], [ 17.4571483, 50.2603439 ], [ 17.4561861, 50.2696938 ], [ 17.4634687, 50.2670543 ], [ 17.4686899, 50.2695664 ], [ 17.471821, 50.2691686 ], [ 17.4955892, 50.2750885 ], [ 17.5184023, 50.2741215 ], [ 17.5244543, 50.2750082 ], [ 17.5257728, 50.2735937 ], [ 17.5418492, 50.270357 ], [ 17.5598084, 50.2713631 ], [ 17.5631973, 50.2702938 ], [ 17.5718673, 50.2746644 ], [ 17.578547, 50.2758485 ], [ 17.5807262, 50.2779189 ], [ 17.5918814, 50.2789534 ], [ 17.5976306, 50.2748432 ], [ 17.5980472, 50.270667099999983 ], [ 17.6026338, 50.2698704 ], [ 17.6054384, 50.2671182 ], [ 17.6120937, 50.2660074 ], [ 17.6384313, 50.2736905 ], [ 17.6416848, 50.27612160000001 ], [ 17.6507524, 50.2777643 ], [ 17.657828, 50.2848891 ], [ 17.6641178, 50.2870086 ], [ 17.6685938, 50.2911613 ], [ 17.6756442, 50.2921582 ], [ 17.6807968, 50.2969933 ], [ 17.6859947, 50.2990538 ], [ 17.6891181, 50.30186 ], [ 17.6870985, 50.30574690000001 ], [ 17.6889948, 50.315592499999987 ], [ 17.6869201, 50.3279758 ], [ 17.7190165, 50.3202689 ], [ 17.7224815, 50.3176955 ], [ 17.7288165, 50.3032954 ], [ 17.7332869, 50.3035079 ], [ 17.7376644, 50.3012385 ], [ 17.7408417, 50.3019606 ], [ 17.7449135, 50.300345 ], [ 17.7454985, 50.301515 ], [ 17.7496432, 50.301164 ], [ 17.7520456, 50.2995213 ], [ 17.7517113, 50.2974654 ], [ 17.7485037, 50.2966956 ], [ 17.7478262, 50.293095 ], [ 17.7429451, 50.2910439 ], [ 17.7346349, 50.277577799999989 ], [ 17.7258691, 50.2728181 ], [ 17.7249471, 50.2567502 ], [ 17.7649704, 50.236391 ], [ 17.7565501, 50.2214499 ], [ 17.7599901, 50.2165596 ], [ 17.7574864, 50.2105881 ], [ 17.7584506, 50.2065783 ], [ 17.7480498, 50.2052777 ], [ 17.7411325, 50.2020592 ], [ 17.7346104, 50.2024916 ], [ 17.7242144, 50.2065821 ], [ 17.7173623, 50.2056983 ], [ 17.7173288, 50.2024496 ], [ 17.7099837, 50.199199099999987 ], [ 17.7106206, 50.1918351 ], [ 17.7042641, 50.189707799999987 ], [ 17.705843, 50.1861072 ], [ 17.7017846, 50.1841721 ], [ 17.6835901, 50.1816135 ], [ 17.67944, 50.1829359 ], [ 17.6657646, 50.1778453 ], [ 17.6433151, 50.1761662 ], [ 17.636852, 50.173762299999986 ], [ 17.6306705, 50.1734567 ], [ 17.6256963, 50.1691861 ], [ 17.6154603, 50.1713128 ], [ 17.6056036, 50.1711199 ], [ 17.6011524, 50.1696264 ], [ 17.5926847, 50.1599766 ], [ 17.6058101, 50.148966 ], [ 17.6089865, 50.1417882 ], [ 17.6112644, 50.1398644 ], [ 17.6170033, 50.1390753 ], [ 17.6173467, 50.1373251 ], [ 17.6402549, 50.1307343 ], [ 17.644865, 50.1245753 ], [ 17.6437532, 50.1226992 ], [ 17.6465418, 50.1165773 ], [ 17.6486083, 50.1162267 ], [ 17.6476369, 50.1138837 ], [ 17.6509767, 50.1105703 ], [ 17.6619817, 50.1086869 ], [ 17.676657, 50.103024 ], [ 17.6832672, 50.1173087 ], [ 17.6968362, 50.1169933 ], [ 17.7051259, 50.114406099999982 ], [ 17.7182892, 50.1060706 ], [ 17.7308762, 50.0971615 ], [ 17.7294948, 50.0879358 ], [ 17.7382354, 50.0824117 ], [ 17.740058, 50.082751 ], [ 17.7403101, 50.0808594 ], [ 17.7430775, 50.081348 ], [ 17.748914, 50.0788322 ], [ 17.7491792, 50.0760058 ], [ 17.7524441, 50.0742184 ], [ 17.7509411, 50.0732544 ], [ 17.7524384, 50.0696538 ], [ 17.7567544, 50.0685472 ], [ 17.7561908, 50.0671081 ], [ 17.7588948, 50.0677508 ], [ 17.7563806, 50.065537699999986 ], [ 17.7595302, 50.0643357 ], [ 17.7548749, 50.062537299999988 ], [ 17.7554559, 50.0608292 ], [ 17.7583674, 50.059765 ], [ 17.7569147, 50.0583778 ], [ 17.7609625, 50.0588685 ], [ 17.76134, 50.0569248 ], [ 17.7641744, 50.0560147 ], [ 17.7620397, 50.0557428 ], [ 17.7615184, 50.053481 ], [ 17.7668023, 50.0510036 ], [ 17.7691288, 50.0514912 ], [ 17.7689276, 50.049113 ], [ 17.7714221, 50.0486333 ], [ 17.770597, 50.0438994 ], [ 17.7732731, 50.0423571 ], [ 17.7692636, 50.0377522 ], [ 17.7697982, 50.0352623 ], [ 17.7751595, 50.035097 ], [ 17.7771278, 50.0310817 ], [ 17.776526, 50.028379 ], [ 17.7717584, 50.025232499999987 ], [ 17.7775687, 50.0202023 ], [ 17.7851593, 50.0202105 ], [ 17.7886764, 50.0173263 ], [ 17.7923829, 50.0191273 ], [ 17.7950198, 50.0177057 ], [ 17.7950483, 50.0144584 ], [ 17.7981426, 50.0135014 ], [ 17.8276885, 50.0113046 ], [ 17.8368567, 50.0036091 ], [ 17.8263698, 49.9940079 ], [ 17.8340296, 49.9898097 ], [ 17.8376579, 49.9923535 ], [ 17.8428232, 49.9868058 ], [ 17.8503489, 49.9867871 ], [ 17.8511953, 49.9826684 ], [ 17.8545005, 49.9827691 ], [ 17.8567223, 49.9798628 ], [ 17.8614943, 49.9806484 ], [ 17.8684964, 49.9724893 ], [ 17.8895053, 49.980085 ], [ 17.9091562, 49.9765104 ], [ 17.9228469, 49.9787509 ], [ 17.9300674, 49.9866197 ], [ 17.9540415, 50.0050671 ], [ 17.9618519, 50.0049817 ], [ 17.9655087, 50.0082471 ], [ 17.9698279, 50.008879299999982 ], [ 17.983279, 50.0050793 ], [ 17.9892682, 50.0135356 ], [ 18.0046333, 50.0183607 ], [ 18.0074607, 50.0106989 ], [ 18.0352954, 50.0110082 ], [ 18.0370973, 50.0086034 ], [ 18.0454604, 50.0051267 ], [ 18.0457049, 50.0102909 ], [ 18.04091, 50.0136044 ], [ 18.042467, 50.01572 ], [ 18.0463093, 50.0158863 ], [ 18.0469916, 50.0193833 ], [ 18.0429282, 50.0220401 ], [ 18.0490156, 50.0274277 ], [ 18.0443784, 50.036607 ], [ 18.0247396, 50.03876 ], [ 18.0245941, 50.036567599999984 ], [ 18.017357, 50.0311748 ], [ 18.0131017, 50.0302394 ], [ 18.0088212, 50.0312848 ], [ 18.0040706, 50.038994 ], [ 18.0066424, 50.0447137 ], [ 18.0050011, 50.052948 ], [ 18.0119934, 50.0547212 ], [ 18.0208566, 50.0609207 ], [ 18.0350325, 50.0657662 ], [ 18.0411703, 50.0697097 ], [ 18.0425282, 50.073945299999984 ], [ 18.0572236, 50.0871944 ], [ 18.0592153, 50.096474299999983 ], [ 18.0663339, 50.1064666 ], [ 18.0726242, 50.1094264 ], [ 18.0607141, 50.1159282 ], [ 18.0671017, 50.1239438 ], [ 18.0680689, 50.1297738 ], [ 18.0546883, 50.133600499999986 ], [ 18.0501646, 50.1380885 ], [ 18.0534808, 50.1456995 ], [ 18.0557378, 50.1449386 ], [ 18.0660572, 50.1569909 ], [ 18.0565573, 50.1606512 ], [ 18.0587993, 50.1629871 ], [ 18.0563708, 50.1637948 ], [ 18.0586081, 50.1653496 ], [ 18.0612392, 50.1649743 ], [ 18.064085, 50.1678154 ], [ 18.0614224, 50.168335 ], [ 18.0629764, 50.1698223 ], [ 18.0585761, 50.173972 ], [ 18.0620223, 50.1757021 ], [ 18.064871, 50.1718419 ], [ 18.0670018, 50.172760299999986 ], [ 18.0710959, 50.170593 ], [ 18.0784734, 50.174327299999987 ], [ 18.083332, 50.174634 ], [ 18.0832664, 50.1757124 ], [ 18.1008184, 50.1775988 ], [ 18.1015257, 50.1808751 ], [ 18.1034083, 50.1787488 ], [ 18.1009468, 50.1756391 ], [ 18.1037496, 50.1707944 ], [ 18.1103456, 50.1672107 ], [ 18.122865, 50.174791 ], [ 18.120483, 50.1791899 ], [ 18.1335998, 50.1844187 ], [ 18.1379684, 50.1794564 ], [ 18.142042, 50.1808578 ], [ 18.1455785, 50.1794531 ], [ 18.1623579, 50.1891237 ], [ 18.1727471, 50.1865745 ], [ 18.1828362, 50.1809552 ], [ 18.185994, 50.1809576 ], [ 18.1850959, 50.186831 ], [ 18.2053062, 50.190318199999986 ], [ 18.2490326, 50.1925715 ], [ 18.2506014, 50.194257199999988 ], [ 18.2494081, 50.1977647 ], [ 18.2413077, 50.1971962 ], [ 18.2354098, 50.2013874 ], [ 18.2379472, 50.208448 ], [ 18.2355666, 50.2129378 ], [ 18.2374014, 50.2146684 ], [ 18.2488702, 50.2169091 ], [ 18.2528335, 50.2230548 ], [ 18.2712324, 50.2203588 ], [ 18.2751927, 50.2248717 ], [ 18.2976104, 50.2290125 ], [ 18.2964426, 50.2302574 ], [ 18.3052915, 50.2317918 ], [ 18.3051737, 50.2302224 ], [ 18.308436, 50.230761499999979 ], [ 18.3132489, 50.2357876 ], [ 18.312999, 50.240666 ], [ 18.3249348, 50.2408807 ], [ 18.3339275, 50.2452607 ], [ 18.3468515, 50.2472515 ], [ 18.3621075, 50.2472726 ], [ 18.3533246, 50.2582353 ], [ 18.3765993, 50.2539082 ], [ 18.3837452, 50.2555278 ], [ 18.3998497, 50.2537636 ], [ 18.405858, 50.2547221 ], [ 18.4208351, 50.2491401 ], [ 18.4258663, 50.2489656 ], [ 18.4202695, 50.2614754 ], [ 18.426553, 50.261389 ], [ 18.4276464, 50.2673152 ], [ 18.4220857, 50.2728347 ], [ 18.4061096, 50.2770978 ], [ 18.3936904, 50.2759182 ], [ 18.4002103, 50.2841139 ], [ 18.4061325, 50.2865938 ], [ 18.407642, 50.2899147 ], [ 18.4042996, 50.2962876 ], [ 18.3932337, 50.3053619 ], [ 18.3919915, 50.3139608 ], [ 18.4090482, 50.3171713 ], [ 18.4067194, 50.3227971 ], [ 18.4057179, 50.324307 ], [ 18.398107, 50.3231873 ], [ 18.4010143, 50.327237599999989 ], [ 18.4001401, 50.3312929 ], [ 18.393885, 50.3384569 ], [ 18.3812305, 50.3446262 ], [ 18.3716046, 50.347035 ], [ 18.3577446, 50.3565689 ], [ 18.3631383, 50.3571449 ], [ 18.3727613, 50.3610964 ], [ 18.372468, 50.3715826 ], [ 18.3885626, 50.3703627 ], [ 18.3882187, 50.3745068 ], [ 18.3765133, 50.3761043 ], [ 18.3738435, 50.3798922 ], [ 18.3768464, 50.3790576 ], [ 18.3770163, 50.3810504 ], [ 18.3822359, 50.3816172 ], [ 18.3850122, 50.3800847 ], [ 18.3849251, 50.3846473 ], [ 18.3911544, 50.3854417 ], [ 18.3963101, 50.3889604 ], [ 18.3935792, 50.389567599999985 ], [ 18.3936596, 50.391446 ], [ 18.3847094, 50.4001651 ], [ 18.3855518, 50.4042488 ], [ 18.3780671, 50.4135485 ], [ 18.3705449, 50.4154158 ], [ 18.3648765, 50.419121399999987 ], [ 18.3671474, 50.4202613 ], [ 18.3655581, 50.424344699999985 ], [ 18.3669289, 50.4268828 ], [ 18.3759568, 50.4264711 ], [ 18.3856259, 50.431304 ], [ 18.3891159, 50.4395886 ], [ 18.3875008, 50.4451889 ], [ 18.3816494, 50.449144 ], [ 18.3824814, 50.4524264 ], [ 18.3861536, 50.4516894 ], [ 18.3829701, 50.4572327 ], [ 18.386888, 50.4587627 ], [ 18.3838095, 50.4611716 ], [ 18.3796091, 50.481742599999983 ], [ 18.3818069, 50.4812999 ], [ 18.3837508, 50.4835642 ], [ 18.4099484, 50.4746146 ], [ 18.4347723, 50.4784208 ], [ 18.4400429, 50.480727 ], [ 18.452705, 50.4769294 ], [ 18.4504469, 50.47396 ], [ 18.453278, 50.471015099999988 ], [ 18.4519653, 50.4626276 ], [ 18.4687961, 50.461608499999983 ], [ 18.4812912, 50.4582755 ], [ 18.4832163, 50.466616 ], [ 18.4859927, 50.4698656 ], [ 18.4793255, 50.471531 ], [ 18.4794571, 50.4734971 ], [ 18.4749278, 50.473032 ], [ 18.4743684, 50.4792826 ], [ 18.4703638, 50.4796016 ], [ 18.466544, 50.4995009 ], [ 18.4474883, 50.498897699999986 ], [ 18.4466766, 50.508812099999986 ], [ 18.4397115, 50.5193992 ], [ 18.4381302, 50.5273735 ], [ 18.4298677, 50.5316219 ], [ 18.4360129, 50.5450741 ], [ 18.4438695, 50.5478637 ], [ 18.4593953, 50.5485031 ], [ 18.4778553, 50.552713499999989 ], [ 18.5059932, 50.5491931 ], [ 18.5340621, 50.5424303 ], [ 18.5568761, 50.5397574 ], [ 18.5727307, 50.548117 ], [ 18.5798588, 50.5456048 ], [ 18.5814402, 50.5484312 ], [ 18.5882603, 50.5471634 ], [ 18.5978177, 50.5506232 ], [ 18.6041245, 50.549038799999984 ], [ 18.6074733, 50.5500111 ], [ 18.6053773, 50.552739 ], [ 18.6162587, 50.5692661 ], [ 18.6034353, 50.5676287 ], [ 18.5980289, 50.5686187 ], [ 18.6004474, 50.574422 ], [ 18.5953858, 50.5727009 ], [ 18.5908423, 50.57581 ], [ 18.5954597, 50.5775953 ], [ 18.5908003, 50.5777914 ], [ 18.6017269, 50.6044531 ], [ 18.5901322, 50.606387699999985 ], [ 18.5872507, 50.6138227 ], [ 18.5175042, 50.6254992 ], [ 18.5131908, 50.630687 ], [ 18.5168622, 50.6396293 ], [ 18.5063537, 50.6413259 ], [ 18.5132674, 50.6580867 ], [ 18.5225187, 50.6584389 ], [ 18.522834, 50.6594085 ], [ 18.4940853, 50.6642885 ], [ 18.4967618, 50.6706508 ], [ 18.508878, 50.6737025 ], [ 18.503918, 50.6736552 ], [ 18.5024939, 50.6763402 ], [ 18.4995523, 50.675942 ], [ 18.4975157, 50.6790162 ], [ 18.4893725, 50.6775892 ], [ 18.4870257, 50.678643 ], [ 18.4855264, 50.6804674 ], [ 18.4876539, 50.6815354 ], [ 18.4840528, 50.6856597 ], [ 18.4933817, 50.6869923 ], [ 18.4947791, 50.6906264 ], [ 18.4993045, 50.6894587 ], [ 18.5009109, 50.6938092 ], [ 18.4925363, 50.6967202 ], [ 18.4936793, 50.7004618 ], [ 18.4782635, 50.7030993 ], [ 18.4806105, 50.7041602 ], [ 18.484114, 50.7030304 ], [ 18.483883, 50.7082627 ], [ 18.4956653, 50.7105465 ], [ 18.5004727, 50.7097771 ], [ 18.5068936, 50.7131887 ], [ 18.5089518, 50.7260606 ], [ 18.5233352, 50.7266809 ], [ 18.5483026, 50.7320238 ], [ 18.5470504, 50.742420299999985 ], [ 18.5491676, 50.7490343 ], [ 18.551975, 50.749574299999985 ], [ 18.5517381, 50.752303 ], [ 18.5554755, 50.751088099999983 ], [ 18.5548825, 50.7490185 ], [ 18.5704945, 50.7447085 ], [ 18.5721596, 50.7489628 ], [ 18.5773728, 50.7480577 ], [ 18.5817186, 50.7524524 ], [ 18.5716898, 50.7564156 ], [ 18.5571071, 50.7568487 ], [ 18.5500283, 50.7595758 ], [ 18.5348857, 50.771424699999983 ], [ 18.5380503, 50.7742155 ], [ 18.5343301, 50.7787856 ], [ 18.5250664, 50.7763858 ], [ 18.5271989, 50.7801066 ], [ 18.5251538, 50.7862216 ], [ 18.5160918, 50.7888591 ], [ 18.5167881, 50.7919704 ], [ 18.5221807, 50.7916514 ], [ 18.5210418, 50.7969023 ], [ 18.5158682, 50.79597 ], [ 18.516027, 50.797409 ], [ 18.5124112, 50.7980399 ], [ 18.5036385, 50.796929899999988 ], [ 18.5043979, 50.8004633 ], [ 18.5130326, 50.8034372 ], [ 18.5218874, 50.80236 ], [ 18.5605953, 50.8080736 ], [ 18.5624354, 50.8090875 ], [ 18.561098, 50.8155703 ], [ 18.5629023, 50.8197425 ], [ 18.5574734, 50.830188 ], [ 18.5579719, 50.834084 ], [ 18.578546, 50.844337 ], [ 18.5881916, 50.851634 ], [ 18.6029662, 50.8540491 ], [ 18.6162619, 50.8535233 ], [ 18.6179564, 50.8548692 ], [ 18.617529, 50.8593597 ], [ 18.6230048, 50.865304299999984 ], [ 18.6234918, 50.8701838 ], [ 18.6285466, 50.8724406 ], [ 18.629362, 50.8793075 ], [ 18.6339752, 50.8834179 ], [ 18.6339022, 50.8878912 ], [ 18.6370614, 50.8928232 ], [ 18.6423185, 50.895658599999976 ], [ 18.6423276, 50.8995109 ], [ 18.6465735, 50.9041893 ], [ 18.6503674, 50.9060154 ], [ 18.6549504, 50.9165789 ], [ 18.6541686, 50.9206409 ], [ 18.6491246, 50.9268476 ], [ 18.6492627, 50.931157899999988 ], [ 18.6303131, 50.9311747 ], [ 18.6123848, 50.955138 ], [ 18.6222213, 50.9656491 ], [ 18.6301475, 50.9637829 ], [ 18.6381999, 50.964485799999984 ], [ 18.6428605, 50.9654905 ], [ 18.6445638, 50.969047899999985 ], [ 18.6635719, 50.970471 ], [ 18.6635745, 50.982068 ], [ 18.6681899, 50.9889944 ], [ 18.6561789, 51.0050126 ], [ 18.6670256, 51.0077714 ], [ 18.6797845, 51.0082902 ], [ 18.6954867, 51.0157757 ], [ 18.6719615, 51.0490599 ], [ 18.6754172, 51.0533445 ], [ 18.6729514, 51.0569019 ], [ 18.6606835, 51.0546466 ], [ 18.6483563, 51.0610709 ], [ 18.6374567, 51.0633884 ], [ 18.6250185, 51.071744899999985 ], [ 18.6235941, 51.0771912 ], [ 18.6082784, 51.0817053 ], [ 18.5997758, 51.0822699 ], [ 18.5923624, 51.0809164 ], [ 18.5776048, 51.0819215 ], [ 18.5807533, 51.089835 ], [ 18.5788381, 51.0935007 ], [ 18.5622686, 51.1066463 ], [ 18.5613448, 51.111149399999988 ], [ 18.564103, 51.1122392 ], [ 18.5676523, 51.119049499999988 ], [ 18.5537189, 51.1387838 ], [ 18.5478156, 51.1411088 ], [ 18.5430165, 51.1410933 ], [ 18.5367027, 51.1378402 ], [ 18.5208251, 51.1402598 ], [ 18.5154778, 51.1327206 ], [ 18.516495, 51.1207883 ], [ 18.5201684, 51.1162304 ], [ 18.5166307, 51.1112626 ], [ 18.5197902, 51.1082063 ], [ 18.5129715, 51.1031821 ], [ 18.4987372, 51.0995787 ], [ 18.4964894, 51.0951652 ], [ 18.4894042, 51.0907002 ], [ 18.4783198, 51.0923171 ], [ 18.4813994, 51.0997116 ], [ 18.4697537, 51.1043709 ], [ 18.4645144, 51.1202061 ], [ 18.4536978, 51.1149816 ], [ 18.4369353, 51.114104 ], [ 18.4297419, 51.11575340000001 ], [ 18.4289715, 51.1175678 ], [ 18.4218444, 51.1170444 ], [ 18.4187827, 51.1258622 ], [ 18.4063211, 51.1241338 ], [ 18.3927061, 51.126419499999983 ], [ 18.3877362, 51.1299831 ], [ 18.3816858, 51.128202 ], [ 18.3755591, 51.1311131 ], [ 18.3751005, 51.1342909 ], [ 18.370325, 51.13518 ], [ 18.3670243, 51.1388062 ], [ 18.3630523, 51.1362627 ], [ 18.3606384, 51.1374938 ], [ 18.3529981, 51.1361569 ], [ 18.3475647, 51.1380644 ], [ 18.3445372, 51.1370554 ], [ 18.3329421, 51.139089 ], [ 18.3229675, 51.1381747 ], [ 18.3166934, 51.1360913 ], [ 18.3149308, 51.1339688 ], [ 18.3051311, 51.1352995 ], [ 18.3030747, 51.1402188 ], [ 18.2999486, 51.139632 ], [ 18.2891049, 51.1465284 ], [ 18.2777006, 51.1477301 ], [ 18.2707747, 51.150414499999989 ], [ 18.2648663, 51.1560135 ], [ 18.2595626, 51.1577054 ], [ 18.2515008, 51.155823 ], [ 18.2463455, 51.1575958 ], [ 18.2435296, 51.1561365 ], [ 18.2377703, 51.1588298 ], [ 18.229783, 51.155514699999983 ], [ 18.223758, 51.1571095 ], [ 18.2215746, 51.154557 ], [ 18.2190181, 51.1558571 ], [ 18.2069957, 51.1556057 ], [ 18.1962246, 51.158161 ], [ 18.187362, 51.1572233 ], [ 18.1839078, 51.1600301 ], [ 18.1744881, 51.1612435 ], [ 18.1657721, 51.165012 ], [ 18.1661825, 51.167089099999984 ], [ 18.1635637, 51.16761 ], [ 18.1626648, 51.1700607 ], [ 18.1643961, 51.1716784 ], [ 18.1610946, 51.174684199999987 ], [ 18.1534276, 51.1731236 ], [ 18.1514219, 51.1712751 ], [ 18.137203, 51.172015 ], [ 18.1242972, 51.168524899999987 ], [ 18.1044924, 51.1533995 ], [ 18.1020629, 51.1587456 ], [ 18.0937736, 51.1566195 ], [ 18.0817377, 51.1661184 ], [ 18.0781671, 51.166173 ], [ 18.0746851, 51.1636084 ], [ 18.0727878, 51.1587859 ], [ 18.07049, 51.1593084 ], [ 18.0699704, 51.156413 ], [ 18.0735036, 51.1545667 ], [ 18.0772353, 51.1570051 ], [ 18.0817827, 51.154543 ], [ 18.0796949, 51.152879 ], [ 18.072854, 51.1527055 ], [ 18.0734041, 51.1511681 ], [ 18.0678864, 51.149508399999988 ], [ 18.0754779, 51.146949 ], [ 18.0732615, 51.1448312 ], [ 18.0595856, 51.1416352 ], [ 18.0503136, 51.1350603 ], [ 18.0393515, 51.1310329 ], [ 18.0151975, 51.1271338 ], [ 18.0036911, 51.1218536 ], [ 17.9955366, 51.1216331 ], [ 17.9393744, 51.108906700000013 ], [ 17.9315666, 51.1133985 ], [ 17.925482, 51.1110226 ], [ 17.9224394, 51.1139855 ], [ 17.8852901, 51.1037896 ], [ 17.880279, 51.105302099999989 ], [ 17.8757394, 51.111781 ], [ 17.8674611, 51.1109226 ], [ 17.8635958, 51.1145932 ], [ 17.8553377, 51.1142259 ], [ 17.8520276, 51.1119866 ], [ 17.8474918, 51.1171252 ], [ 17.8391493, 51.1164282 ], [ 17.828304, 51.1198846 ], [ 17.8234739, 51.117913299999984 ], [ 17.8192032, 51.1223164 ], [ 17.816925, 51.1323439 ], [ 17.8121984, 51.1324307 ], [ 17.8131221, 51.1379615 ], [ 17.8194184, 51.1398268 ], [ 17.8247631, 51.1399318 ], [ 17.8313351, 51.137469099999983 ], [ 17.832816, 51.143055 ], [ 17.8513287, 51.1720368 ], [ 17.8479614, 51.1837891 ], [ 17.8425473, 51.189010899999985 ], [ 17.8364757, 51.1916712 ], [ 17.82584, 51.19456850000001 ], [ 17.8119079, 51.1867527 ], [ 17.8108464, 51.190057 ], [ 17.7983025, 51.192316299999987 ], [ 17.7966204, 51.1946291 ], [ 17.7951427, 51.1897665 ], [ 17.7891019, 51.187921 ], [ 17.782959, 51.1882505 ], [ 17.7798295, 51.18324 ], [ 17.7538181, 51.1867886 ], [ 17.7502452, 51.179680799999986 ], [ 17.7390452, 51.174291 ], [ 17.7146301, 51.1749543 ], [ 17.7064227, 51.1731603 ], [ 17.7043806, 51.1738962 ], [ 17.6981914, 51.1716649 ], [ 17.7002598, 51.1632713 ], [ 17.682201, 51.1670592 ], [ 17.682802, 51.1656908 ], [ 17.6741815, 51.1641326 ], [ 17.6692699, 51.1608153 ], [ 17.6588493, 51.1634884 ], [ 17.6559136, 51.1666239 ], [ 17.6394345, 51.1681494 ], [ 17.6403675, 51.1731425 ], [ 17.6206111, 51.1754265 ], [ 17.6194991, 51.184407 ], [ 17.6130579, 51.1873208 ], [ 17.6115019, 51.190519499999986 ], [ 17.606593, 51.189602 ], [ 17.5966133, 51.1785355 ], [ 17.6026988, 51.1759111 ], [ 17.5970756, 51.1710899 ], [ 17.5988939, 51.1678253 ], [ 17.589212, 51.1713252 ], [ 17.5782436, 51.1622414 ], [ 17.5679493, 51.165890599999983 ], [ 17.5663643, 51.1614363 ], [ 17.5586121, 51.1567837 ], [ 17.544747, 51.1544882 ], [ 17.5454688, 51.1435741 ], [ 17.5677214, 51.1378424 ], [ 17.5655464, 51.1334821 ], [ 17.5763812, 51.1294217 ], [ 17.5755201, 51.123643 ], [ 17.5714595, 51.1176166 ], [ 17.5782234, 51.1108328 ], [ 17.5719298, 51.1061952 ], [ 17.5624309, 51.0926001 ], [ 17.5677346, 51.088423399999989 ], [ 17.5786197, 51.0851373 ], [ 17.5821334, 51.0818425 ], [ 17.5643937, 51.0731248 ], [ 17.5582078, 51.0678313 ], [ 17.5524722, 51.0672299 ], [ 17.5342907, 51.069242 ], [ 17.5243183, 51.065163 ], [ 17.518703, 51.0588149 ], [ 17.5244981, 51.0585005 ], [ 17.5238909, 51.0533887 ], [ 17.5212602, 51.053550199999982 ], [ 17.5184023, 51.0515267 ], [ 17.5191393, 51.0502839 ], [ 17.5211629, 51.0484327 ], [ 17.5255114, 51.0490959 ], [ 17.534854, 51.0431622 ], [ 17.5270241, 51.0313701 ], [ 17.5188907, 51.0254456 ], [ 17.5185247, 51.0174546 ], [ 17.514284, 51.0116313 ], [ 17.522027, 51.009099299999988 ], [ 17.5213402, 51.0057451 ], [ 17.5284735, 51.0022495 ], [ 17.541865, 51.0026266 ], [ 17.5436597, 50.999789 ], [ 17.5407074, 50.9920675 ], [ 17.5425343, 50.991200499999984 ], [ 17.5363473, 50.9888956 ], [ 17.5348723, 50.990065499999986 ], [ 17.5180734, 50.9872352 ], [ 17.5043107, 50.9886416 ], [ 17.4991524, 50.9927466 ], [ 17.4906608, 50.9881921 ], [ 17.4953769, 50.9849946 ], [ 17.5047352, 50.9849593 ], [ 17.5148545, 50.9796865 ], [ 17.5131247, 50.9723866 ], [ 17.5093734, 50.9694467 ], [ 17.5048573, 50.9697172 ], [ 17.5028483, 50.97197950000001 ], [ 17.5046443, 50.973141799999986 ], [ 17.5015501, 50.9755871 ], [ 17.4690943, 50.9718557 ], [ 17.4640074, 50.9783027 ], [ 17.4500319, 50.971736399999983 ], [ 17.4313972, 50.9670856 ], [ 17.4337955, 50.9543091 ], [ 17.4309498, 50.9459477 ], [ 17.4319447, 50.9435494 ], [ 17.4353574, 50.943169 ], [ 17.4395824, 50.9369711 ], [ 17.4346521, 50.9280471 ], [ 17.4306621, 50.926152599999988 ], [ 17.429678, 50.9236794 ], [ 17.4314591, 50.9183194 ], [ 17.4363843, 50.9169763 ], [ 17.4290733, 50.9146639 ], [ 17.4272398, 50.9105733 ], [ 17.4172592, 50.9125987 ], [ 17.4080526, 50.9105501 ], [ 17.4042933, 50.9128368 ], [ 17.4025619, 50.9186827 ], [ 17.4002198, 50.9200809 ], [ 17.3803581, 50.9249347 ], [ 17.3693514, 50.925736799999989 ], [ 17.3704115, 50.9181927 ], [ 17.365839, 50.914465 ], [ 17.3671651, 50.9137246 ], [ 17.3578746, 50.9070505 ], [ 17.3599192, 50.9061314 ], [ 17.3524252, 50.9006508 ], [ 17.3679414, 50.8979857 ], [ 17.3978721, 50.8892522 ], [ 17.393908, 50.8877555 ], [ 17.3951123, 50.8755278 ], [ 17.3850974, 50.8755741 ], [ 17.3842896, 50.8620652 ], [ 17.3755504, 50.8599704 ], [ 17.3650018, 50.8595034 ], [ 17.3472049, 50.8520184 ], [ 17.3346062, 50.8521674 ], [ 17.3282014, 50.8505954 ], [ 17.330543, 50.8446159 ], [ 17.3391522, 50.8371778 ], [ 17.3432377, 50.8287445 ], [ 17.3371445, 50.8256136 ], [ 17.3183443, 50.8211464 ], [ 17.3282436, 50.8181253 ], [ 17.3398109, 50.8081753 ], [ 17.3502325, 50.8075977 ], [ 17.3502045, 50.799704 ], [ 17.3546583, 50.7948 ], [ 17.3519715, 50.7904198 ], [ 17.3461724, 50.7878845 ], [ 17.3448521, 50.7839263 ], [ 17.3330698, 50.7869563 ], [ 17.3062668, 50.7881742 ], [ 17.2858619, 50.7949185 ], [ 17.2848959, 50.792337 ], [ 17.2721864, 50.786867 ], [ 17.2711737, 50.780532399999984 ], [ 17.2562267, 50.7746009 ], [ 17.2539126, 50.7720407 ], [ 17.26244, 50.7722117 ], [ 17.2695219, 50.770509699999977 ], [ 17.2684013, 50.7678659 ], [ 17.2795393, 50.7608871 ], [ 17.2975841, 50.753335099999987 ], [ 17.2913927, 50.7464667 ], [ 17.3011615, 50.7430308 ], [ 17.2942758, 50.7375688 ], [ 17.2855059, 50.7431038 ], [ 17.275552, 50.7445979 ], [ 17.2705771, 50.7406119 ], [ 17.2625355, 50.7391076 ], [ 17.2632095, 50.7299412 ], [ 17.2618764, 50.730490599999989 ], [ 17.2521179, 50.7177271 ], [ 17.2478013, 50.7194097 ], [ 17.2404953, 50.7183612 ], [ 17.2388724, 50.715384299999982 ], [ 17.2288127, 50.7172972 ], [ 17.2291129, 50.7147062 ], [ 17.2257171, 50.7155967 ], [ 17.2207875, 50.713703 ], [ 17.2222522, 50.7067288 ], [ 17.2201786, 50.7013705 ], [ 17.2590771, 50.6904682 ], [ 17.2559445, 50.6867236 ], [ 17.2519754, 50.6867008 ], [ 17.2472335, 50.6821091 ], [ 17.2347454, 50.681113 ], [ 17.2395746, 50.67165090000001 ], [ 17.2375169, 50.664516 ], [ 17.2389565, 50.6607529 ], [ 17.2379557, 50.6576621 ], [ 17.2324811, 50.6551042 ], [ 17.2362425, 50.654039899999987 ], [ 17.2389307, 50.6507969 ], [ 17.2353742, 50.6496055 ], [ 17.2349956, 50.6454574 ], [ 17.2302209, 50.6405146 ], [ 17.2339922, 50.6322172 ], [ 17.2427318, 50.6280464 ], [ 17.2419197, 50.6241957 ], [ 17.2442273, 50.6188273 ], [ 17.2360208, 50.613223 ], [ 17.2187537, 50.6158479 ], [ 17.1864025, 50.6163401 ], [ 17.1554752, 50.6122647 ], [ 17.1513174, 50.6103942 ], [ 17.1400795, 50.6102267 ], [ 17.1218684, 50.6075013 ], [ 17.1149183, 50.5874485 ], [ 17.1113467, 50.5867794 ], [ 17.0992489, 50.575923199999984 ], [ 17.0991353, 50.5722644 ], [ 17.0940948, 50.5643577 ], [ 17.0755527, 50.5558757 ], [ 17.0686611, 50.5444771 ], [ 17.0635873, 50.5420948 ], [ 17.0613098, 50.536948099999989 ], [ 17.0624901, 50.5307928 ], [ 17.0687139, 50.5244899 ], [ 17.0743245, 50.522563 ], [ 17.0747794, 50.5171255 ], [ 17.0742861, 50.5148496 ], [ 17.0679301, 50.513578 ], [ 17.0567528, 50.5050437 ], [ 17.0577201, 50.4999694 ], [ 17.0626375, 50.4969204 ], [ 17.0588419, 50.4916897 ], [ 17.0643416, 50.4889121 ], [ 17.0622828, 50.486022299999988 ], [ 17.0586773, 50.4849562 ], [ 17.0622698, 50.4838686 ], [ 17.0623511, 50.4811305 ], [ 17.0602383, 50.480797699999989 ], [ 17.0626535, 50.479698 ], [ 17.0624102, 50.4760814 ], [ 17.0583832, 50.4749559 ], [ 17.0546255, 50.475684499999986 ], [ 17.0508614, 50.4714737 ], [ 17.0535786, 50.4712163 ], [ 17.0549924, 50.469224 ], [ 17.0516004, 50.4654121 ], [ 17.0398683, 50.4631879 ], [ 17.0263204, 50.4662846 ], [ 17.0191851, 50.465135599999989 ], [ 17.0165783, 50.4685376 ], [ 17.0251013, 50.47075 ], [ 17.0172577, 50.4735332 ], [ 17.0200922, 50.4803213 ], [ 17.007279, 50.4794321 ], [ 17.0059514, 50.4743985 ], [ 16.9968516, 50.4782746 ], [ 16.9927524, 50.4748624 ], [ 16.9858588, 50.4765419 ], [ 16.9823124, 50.4737519 ], [ 16.9759969, 50.475611 ], [ 16.978876, 50.47925 ], [ 16.9771733, 50.480084 ], [ 16.9804733, 50.4823686 ], [ 16.9786297, 50.4833474 ], [ 16.9763526, 50.482035 ], [ 16.9774378, 50.484070599999988 ], [ 16.9749505, 50.4855645 ], [ 16.9747355, 50.4886893 ], [ 16.9702743, 50.488344299999987 ], [ 16.9709109, 50.4849361 ], [ 16.9688382, 50.4844361 ], [ 16.9655413, 50.487945 ], [ 16.958966, 50.4879162 ], [ 16.9467434, 50.4791743 ], [ 16.94176, 50.4680747 ], [ 16.9449851, 50.468036 ], [ 16.9405618, 50.4612853 ], [ 16.9184465, 50.4528589 ], [ 16.9144425, 50.4497306 ], [ 16.907898, 50.4494483 ] ] ] } }
]
}
